OPEID,state abv,state,city,Name,Address,Zip Code,Zip Ext,"Prog
Length","School
Type",Year 1,"
Num 1","
Denom 1",DRate 1,PRate 1,Ethnic Code,Cong Dis,Region,"Average or
Greater than 30",Year 2,"
Num 2","
Denom 2",DRate 2,PRate 2,Year 3,"
Num 3","
Denom 3",DRate 3,PRate 3
1050,AL,Alabama,Tuskegee,TUSKEGEE UNIVERSITY                                              ,308 KRESGE CENTER                                 ,36088,1645,8,2,2016,115,850,13.5,P,2,3,4,0,2015,101,876,11.5,P,2014,93,806,11.5,P
42200,AR,Arkansas,Fort Smith,DESIGNER BARBER & STYLIST SCHOOL                                 ,2409 SOUTH 56TH STREET             SUITE 118      ,72903,3753,3,3,2016,6,30,20,A,5,3,6,0,2015,6,38,15.7,B,2014,1,10,10,B
1104,AR,Arkansas,Helena-West Helena,PHILLIPS COMMUNITY COLLEGE OF THE UNIVERSITY OF ARKANSAS         ,1000 CAMPUS DRIVE                                 ,72342,0,5,1,2016,20,114,17.5,B,5,1,6,1,2015,4,35,11.4,A,2014,13,59,22,A
39745,CA,California,Canoga Park,CALIFORNIA CAREER COLLEGE                                        ,7003 OWENSMOUTH AVENUE                            ,91303,2006,5,3,2016,2,40,5,A,5,27,9,0,2015,7,71,9.8,A,2014,2,40,5,A
7130,CA,California,Granada Hills,NEWBERRY SCHOOL OF BEAUTY                                        ,16852 DEVONSHIRE STREET                           ,91344,7404,3,3,2016,5,88,5.6,P,5,27,9,0,2015,1,81,1.2,P,2014,6,92,6.5,P
20912,CA,California,Hollywood,ELEGANCE INTERNATIONAL                                           ,6767 SUNSET BOULEVARD                             ,90028,6106,3,3,2016,52,318,16.3,A,5,33,9,0,2015,12,181,6.6,A,2014,8,72,11.1,A
21618,CA,California,Hollywood,MUSICIANS INSTITUTE                                              ,6752 HOLLYWOOD BOULEVARD                          ,90028,6157,8,3,2016,33,432,7.6,A,5,33,9,0,2015,41,480,8.5,A,2014,52,542,9.5,A
40373,CA,California,Hollywood,LOS ANGELES FILM SCHOOL (THE)                                    ,6363 WEST SUNSET BOULEVARD                        ,90028,7300,6,3,2016,193,1077,17.9,A,5,31,9,0,2015,267,1205,22.1,A,2014,281,1384,20.3,A
40764,CA,California,Hollywood,GNOMON                                                           ,1015 NORTH CAHUENGA BOULEVARD      SUITE 5430I    ,90038,2616,6,3,2016,1,49,2,A,5,31,9,0,2015,1,39,2.5,A,2014,1,31,3.2,A
1317,CA,California,La Jolla,"UNIVERSITY OF CALIFORNIA, SAN DIEGO                              ",9500 GILMAN DRIVE                  SUITE #0013 - 4,92093,13,8,1,2016,80,4572,1.7,P,5,53,9,0,2015,105,4928,2.1,P,2014,118,5436,2.1,P
11460,CA,California,La Jolla,NATIONAL UNIVERSITY                                              ,11255 NORTH TORREY PINES ROAD                     ,92037,1011,8,2,2016,310,6234,4.9,A,5,53,9,0,2015,377,6770,5.5,A,2014,415,7195,5.7,A
7607,CA,California,Hollywood,CONCORDE CAREER COLLEGE                                          ,12412 VICTORY BOULEVARD                           ,91606,3134,5,3,2016,30,494,6,A,5,28,9,0,2015,66,503,13.1,A,2014,64,524,12.2,A
41596,CA,California,Hollywood,GALAXY MEDICAL COLLEGE                                           ,6400 LAUREL CANYON BOULEVARD       SUITE 115      ,91606,1593,3,3,2016,13,74,17.5,B,5,28,9,1,2015,3,30,10,A,2014,7,30,23.3,A
1153,CA,California,Northridge,"CALIFORNIA STATE UNIVERSITY, NORTHRIDGE                          ",18111 NORDHOFF                                    ,91330,8307,8,1,2016,264,6973,3.7,P,3,27,9,0,2015,413,7546,5.4,P,2014,372,7110,5.2,P
41898,CA,California,Northridge,ACADEMY FOR SALON PROFESSIONALS                                  ,19520 NORDHOFF STREET              SUITE # 9      ,91324,2305,3,3,2016,6,52,11.5,A,5,30,9,0,2015,6,53,11.3,A,2014,9,73,12.3,A
41460,CA,California,Panorama City,NATIONAL CAREER COLLEGE                                          ,14355 ROSCOE BOULEVARD             1ST FLOOR      ,91402,4222,5,3,2016,30,179,16.7,A,5,28,9,0,2015,16,74,21.6,A,2014,10,65,15.3,A
36463,CA,California,Paso Robles,DESIGN'S SCHOOL OF COSMETOLOGY                                   ,2727 BUENA VISTA DRIVE             SUITE 105      ,93446,9530,3,3,2016,16,122,13.1,A,5,22,9,0,2015,24,111,21.6,A,2014,24,106,22.6,A
41812,CA,California,Reseda,SOUTHERN CALIFORNIA HEALTH INSTITUTE (SOCHI)                     ,18040 SHERMAN WAY                  SUITE 500      ,91335,3100,3,3,2016,77,387,19.8,A,5,27,9,0,2015,87,351,24.7,A,2014,56,251,22.3,A
41913,CA,California,Reseda,ANNENBERG SCHOOL OF NURSING                                      ,19300 SHERMAN WAY                                 ,91335,3711,3,2,2016,2,29,6.8,B,5,30,9,1,2015,0,15,0,B,2014,0,10,0,B
41582,CA,California,Sherman Oaks,PAUL MITCHELL THE SCHOOL SHERMAN OAKS                            ,"15301 VENTURA BOULEVARD, UNIT P2                  ",91403,5882,3,3,2016,18,172,10.4,A,5,28,9,0,2015,22,162,13.5,A,2014,9,161,5.5,A
12550,CA,California,Sylmar,LOS ANGELES MISSION COLLEGE                                      ,13356 ELDRIDGE AVENUE                             ,91342,3200,5,1,2016,25,203,12.3,A,3,27,9,0,2015,35,248,14.1,A,2014,28,200,14,A
21102,CA,California,Tarzana,COLUMBIA COLLEGE HOLLYWOOD                                       ,18618 OXNARD STREET                               ,91356,1411,6,2,2016,45,339,13.2,P,5,27,9,0,2015,28,272,10.2,P,2014,8,138,5.7,A
25459,CA,California,Tarzana,HYPNOSIS MOTIVATION INSTITUTE                                    ,"18607 VENTURA BLVD, SUITE 310                     ",91356,4154,3,2,2016,3,107,2.8,A,5,27,9,0,2015,8,100,8,A,2014,18,101,17.8,A
1132,CA,California,Valencia,CALIFORNIA INSTITUTE OF THE ARTS                                 ,24700 MCBEAN PARKWAY                              ,91355,2397,8,2,2016,16,320,5,A,5,25,9,0,2015,25,392,6.3,A,2014,19,362,5.2,A
41589,CA,California,Valencia,FLAIR BEAUTY COLLEGE                                             ,23754 VALENCIA BOULEVARD                          ,91355,2196,3,3,2016,3,39,7.6,A,5,25,9,0,2015,1,35,2.8,A,2014,1,45,2.2,A
1228,CA,California,Valley Glen,LOS ANGELES VALLEY COLLEGE                                       ,5800 FULTON AVENUE                                ,91401,4096,5,1,2016,45,439,10.2,A,3,28,9,0,2015,67,492,13.6,A,2014,64,425,15,A
6731,CA,California,Van Nuys,CASA LOMA COLLEGE                                                ,6725 KESTER AVENUE                                ,91405,4523,5,2,2016,7,236,2.9,A,5,28,9,0,2015,33,348,9.4,A,2014,31,391,7.9,A
25916,CA,California,Van Nuys,NORTH-WEST COLLEGE                                               ,14540 HAYNES STREET                               ,91411,1611,3,3,2016,1,184,0.5,A,5,29,9,0,2015,5,147,3.4,A,2014,4,151,2.6,A
41145,CA,California,West Hills,VALLEY COLLEGE OF MEDICAL CAREERS                                ,8399 TOPANGA CANYON BOULEVARD      SUITE 200      ,91304,2354,5,3,2016,13,77,16.8,A,5,30,9,0,2015,10,52,19.2,A,2014,12,66,18.1,A
1224,CA,California,Wilmington,LOS ANGELES HARBOR COLLEGE                                       ,1111 FIGUEROA PLACE                               ,90744,2397,5,1,2016,9,117,7.6,P,3,36,9,0,2015,11,102,10.7,P,2014,23,119,19.3,P
1226,CA,California,Woodland Hills,LOS ANGELES PIERCE COLLEGE                                       ,6201 WINNETKA AVENUE                              ,91371,1,5,1,2016,83,626,13.2,A,5,27,9,0,2015,96,695,13.8,A,2014,107,624,17.1,A
1434,DC,District Of,Washington,AMERICAN UNIVERSITY (THE)                                        ,4400 MASSACHUSETTS AVENUE NW                      ,20016,8020,8,2,2016,50,2717,1.8,A,5,AL      ,3,0,2015,49,2682,1.8,A,2014,66,2749,2.4,A
1437,DC,District Of,Washington,CATHOLIC UNIVERSITY OF AMERICA (THE)                             ,"620 MICHIGAN AVENUE, NORTHEAST                    ",20064,2,8,2,2016,34,1342,2.5,P,5,AL      ,3,0,2015,50,1448,3.4,P,2014,33,1390,2.3,P
1441,DC,District Of,Washington,UNIVERSITY OF THE DISTRICT OF COLUMBIA                           ,"4200 CONNECTICUT AVENUE NORTHWEST  BLDG. 39, SUITE",20008,1175,8,1,2016,187,1245,15,P,2,AL      ,3,0,2015,223,1473,15.1,P,2014,204,1251,16.3,P
1443,DC,District Of,Washington,GALLAUDET UNIVERSITY                                             ,800 FLORIDA AVENUE NORTHEAST                      ,20002,3695,8,2,2016,25,286,8.7,A,5,AL      ,3,0,2015,28,315,8.8,A,2014,37,321,11.5,A
1444,DC,District Of,Washington,GEORGE WASHINGTON UNIVERSITY                                     ,"2121 I STREET, NW                                 ",20052,2353,8,2,2016,87,4491,1.9,P,5,AL      ,3,0,2015,79,4632,1.7,P,2014,89,4910,1.8,P
1445,DC,District Of,Washington,GEORGETOWN UNIVERSITY                                            ,37TH AND O STREETS NORTHWEST                      ,20057,1252,8,2,2016,40,3100,1.2,P,5,AL      ,3,0,2015,35,3239,1,P,2014,28,3290,0.8,P
1448,DC,District Of,Washington,HOWARD UNIVERSITY                                                ,"2400 SIXTH STREET, NW                             ",20059,1,8,2,2016,218,2722,8,P,2,AL      ,3,0,2015,197,2506,7.8,P,2014,201,2641,7.6,P
1459,DC,District Of,Washington,STRAYER UNIVERSITY                                               ,1133 15TH STREET NW                SUITE 200      ,20005,2603,8,3,2016,2148,20612,10.4,A,5,AL      ,3,0,2015,2527,23813,10.6,A,2014,3574,27068,13.2,A
1460,DC,District Of,Washington,TRINITY WASHINGTON UNIVERSITY                                    ,"125 MICHIGAN AVENUE, NORTHEAST                    ",20017,1004,8,2,2016,121,874,13.8,A,5,AL      ,3,0,2015,134,1082,12.3,A,2014,103,1001,10.2,A
1464,DC,District Of,Washington,WESLEY THEOLOGICAL SEMINARY                                      ,4500 MASSACHUSETTS AVENUE NW                      ,20016,5690,8,2,2016,2,82,2.4,A,5,AL      ,3,0,2015,4,102,3.9,A,2014,3,96,3.1,A
12803,DC,District Of,Washington,DOMINICAN HOUSE OF STUDIES                                       ,487 MICHIGAN AVENUE NORTHEAST                     ,20017,1584,8,2,2016,0,14,0,B,5,AL      ,3,1,2015,0,19,0,B,2014,0,18,0,B
21328,DC,District Of,Washington,NATIONAL CONSERVATORY OF DRAMATIC ARTS                           ,1556 WISCONSIN AVENUE NORTHWEST                   ,20007,2758,4,2,2016,7,51,13.7,B,5,AL      ,3,1,2015,7,50,14,B,2014,4,41,9.7,B
31043,DC,District Of,Washington,CAREER TECHNICAL INSTITUTE                                       ,"1101 VERMONT AVE, NW                              ",20005,3521,5,3,2016,97,432,22.4,A,5,AL      ,3,0,2015,156,544,28.6,A,2014,164,548,29.9,A
32183,DC,District Of,Washington,UNIVERSITY OF THE POTOMAC                                        ,1401 H STREET NORTHWEST                           ,20005,9997,8,3,2016,18,89,20.2,A,5,AL      ,3,0,2015,30,179,16.7,A,2014,34,178,19.1,A
34096,DC,District Of,Washington,BENNETT CAREER INSTITUTE                                         ,700 MONROE ST NE                                  ,20017,1754,3,3,2016,53,131,40.4,A,5,AL      ,3,0,2015,43,154,27.9,A,2014,35,118,29.6,A
37503,DC,District Of,Washington,PROSPECT COLLEGE                                                 ,1720 I STREET NW SUITE 200                        ,20006,3749,3,3,2016,78,353,22,A,5,AL      ,3,0,2015,64,304,21,A,2014,34,235,14.4,A
41144,DC,District Of,Washington,INSTITUTE OF WORLD POLITICS (THE)                                ,"1521 16TH STREET, NW                              ",20036,1464,8,2,2016,0,51,0,A,5,AL      ,3,0,2015,0,33,0,A,2014,1,53,1.8,A
41427,DC,District Of,Washington,PONTIFICAL JOHN PAUL II INSTITUTE FOR STUDIES ON MARRIAGE AND FAM,"620 MICHIGAN AVENUE, NE            MCGIVNEY HALL  ",20064,1,8,2,2016,0,29,0,B,5,AL      ,3,1,2015,0,30,0,B,2014,0,34,0,B
39413,FL,Florida,Ave Maria,AVE MARIA UNIVERSITY                                             ,5050 AVE MARIA BOULEVARD                          ,34142,9505,8,2,2016,13,301,4.3,A,5,14,4,0,2015,27,312,8.6,A,2014,28,277,10.1,A
1531,FL,Florida,Deland,STETSON UNIVERSITY                                               ,421 NORTH WOODLAND BOULEVARD                      ,32723,3761,8,2,2016,26,971,2.6,P,5,7,4,0,2015,40,993,4,P,2014,43,1003,4.2,P
7893,FL,Florida,Saint Augustine,FLAGLER COLLEGE                                                  ,74 KING STREET                                    ,32085,4342,8,2,2016,18,901,1.9,A,5,7,4,0,2015,37,928,3.9,A,2014,67,971,6.9,A
1526,FL,Florida,Saint Leo,SAINT LEO UNIVERSITY                                             ,33701 STATE ROAD 52                               ,33574,6665,8,2,2016,434,5943,7.3,A,5,5,4,0,2015,475,5955,7.9,A,2014,479,5588,8.5,A
1487,FL,Florida,Saint Petersburg,ECKERD COLLEGE                                                   ,4200 54TH AVENUE SOUTH                            ,33711,4744,6,2,2016,16,482,3.3,A,5,10,4,0,2015,27,540,5,A,2014,31,522,5.9,A
10161,FL,Florida,Saint Petersburg,LORAINES ACADEMY & SPA                                           ,1012 58TH STREET NORTH                            ,33710,6391,3,3,2016,2,119,1.6,A,5,10,4,0,2015,2,131,1.5,A,2014,4,115,3.4,A
22796,FL,Florida,St.Petersburg,CORTIVA INSTITUTE                                                ,2370 34TH STREET NORTH                            ,33713,3614,2,3,2016,57,342,16.6,A,5,10,4,0,2015,41,215,19,A,2014,26,158,16.4,A
1578,GA,Georgia,Lagrange,LAGRANGE COLLEGE                                                 ,601 BROAD STREET                                  ,30240,2999,8,2,2016,36,359,10,A,5,8,4,0,2015,41,397,10.3,A,2014,31,370,8.3,A
1623,ID,Idaho,Coeur D'Alene,NORTH IDAHO COLLEGE                                              ,1000 WEST GARDEN AVENUE                           ,83814,2199,5,1,2016,242,1421,17,A,5,1,10,0,2015,277,1664,16.6,A,2014,433,1910,22.6,A
1737,IL,Illinois,Dekalb,NORTHERN ILLINOIS UNIVERSITY                                     ,ALTGELD HALL - ROOM 300A                          ,60115,2854,8,1,2016,399,5055,7.8,P,5,14,5,0,2015,439,5669,7.7,P,2014,466,5802,8,P
1835,IN,Indiana,Saint Mary Of The Wo,SAINT MARY OF THE WOODS COLLEGE                                  ,1 SAINT MARY OF THE WOODS COLLEGE                 ,47876,67,8,2,2016,18,345,5.2,A,5,8,5,0,2015,19,363,5.2,A,2014,21,360,5.8,A
7276,IN,Indiana,St Meinrad,SAINT MEINRAD SCHOOL OF THEOLOGY                                 ,200 HILL DRIVE                                    ,47577,1002,8,2,2016,0,20,0,B,5,9,5,1,2015,0,23,0,B,2014,1,20,5,B
22890,IA,Iowa,Mt. Pleasant,AMERICAN HAIR ACADEMY                                            ,304 SOUTH IRIS STREET                             ,52641,1856,4,3,2016,2,52,3.8,B,5,2,7,1,2015,4,66,6,B,2014,5,76,6.5,B
1908,KS,Kansas,Mcpherson,CENTRAL CHRISTIAN COLLEGE OF KANSAS                              ,1200 SOUTH MAIN STREET                            ,67460,5799,6,2,2016,144,527,27.3,A,5,1,7,0,2015,104,375,27.7,A,2014,63,287,21.9,A
1933,KS,Kansas,Mcpherson,MCPHERSON COLLEGE                                                ,1600 EAST EUCLID STREET                           ,67460,3899,8,2,2016,27,204,13.2,A,5,1,7,0,2015,31,276,11.2,A,2014,29,251,11.5,A
10014,MD,Maryland,Mchenry,GARRETT COLLEGE                                                  ,687 MOSSER ROAD                                   ,21541,1265,5,1,2016,31,191,16.2,A,5,6,3,0,2015,55,223,24.6,A,2014,57,246,23.1,A
2128,MA,Massachusetts,Chestnut Hill,BOSTON COLLEGE                                                   ,140 COMMONWEALTH AVENUE                           ,2467,3800,8,2,2016,31,2003,1.5,P,5,4,1,0,2015,27,2229,1.2,P,2014,21,2291,0.9,P
2201,MA,Massachusetts,Chestnut Hill,PINE MANOR COLLEGE                                               ,400 HEATH STREET                                  ,2467,2332,8,2,2016,29,123,23.5,A,5,4,1,0,2015,18,108,16.6,A,2014,23,128,17.9,A
2157,MA,Massachusetts,Newton Centre,HEBREW COLLEGE                                                   ,160 HERRICK ROAD                                  ,2459,2237,8,2,2016,2,59,3.3,B,5,4,1,1,2015,1,30,3.3,A,2014,1,42,2.3,B
2168,MA,Massachusetts,West Barnstable,CAPE COD COMMUNITY COLLEGE                                       ,2240 IYANNOUGH ROAD                               ,2668,1599,5,1,2016,45,299,15,A,5,10,1,0,2015,47,317,14.8,A,2014,57,391,14.5,A
2243,MI,Michigan,Mt Pleasant,CENTRAL MICHIGAN UNIVERSITY                                      ,106 WARRINER HALL                                 ,48859,1,8,1,2016,313,6380,4.9,A,5,2,5,0,2015,340,6546,5.1,A,2014,330,6734,4.9,A
41211,MI,Michigan,Royal Oaks,ELEVATE SALON INSTITUTE                                          ,4050 CROOKS ROAD                                  ,48067,3591,3,3,2016,20,103,19.4,A,5,12,5,0,2015,14,115,12.1,A,2014,17,162,10.4,A
2293,MI,Michigan,Sault Ste Marie,LAKE SUPERIOR STATE UNIVERSITY                                   ,650 WEST EASTERDAY AVENUE                         ,49783,1691,8,1,2016,34,652,5.2,A,5,1,5,0,2015,42,685,6.1,A,2014,47,684,6.8,A
30752,MI,Michigan,St Joseph,TWIN CITY BEAUTY COLLEGE                                         ,2600 LINCOLN AVENUE                               ,49085,3305,3,3,2016,12,119,10,A,5,6,5,0,2015,9,146,6.1,A,2014,8,150,5.3,A
2251,MI,Michigan,University Center,DELTA COLLEGE                                                    ,1961 DELTA ROAD                                   ,48710,1,5,1,2016,239,1502,15.9,A,5,5,5,0,2015,321,1861,17.2,A,2014,385,1905,20.2,A
2314,MI,Michigan,University Center,SAGINAW VALLEY STATE UNIVERSITY                                  ,7400 BAY ROAD                                     ,48710,1,8,1,2016,215,2651,8.1,A,5,5,5,0,2015,228,2804,8.1,A,2014,206,2746,7.5,A
2377,MN,Minnesota,Saint Cloud,ST. CLOUD STATE UNIVERSITY                                       ,720 FOURTH AVENUE SOUTH                           ,56301,4498,8,1,2016,164,3504,4.6,A,5,6,5,0,2015,204,3846,5.3,A,2014,181,3844,4.7,A
8694,MN,Minnesota,Saint Cloud,RASMUSSEN COLLEGE                                                ,226 PARK AVENUE SOUTH                             ,56301,3713,8,3,2016,782,10677,7.3,P,5,6,5,0,2015,804,11188,7.1,P,2014,946,11604,8.1,P
9831,MN,Minnesota,Saint Cloud,MODEL COLLEGE OF HAIR DESIGN                                     ,"201 8TH AVENUE, SOUTH                             ",56301,4280,3,3,2016,12,79,15.1,A,5,6,5,0,2015,11,84,13,A,2014,15,90,16.6,A
2342,MN,Minnesota,Saint Paul,ST. CATHERINE UNIVERSITY                                         ,2004 RANDOLPH AVENUE                              ,55105,1789,8,2,2016,48,1378,3.4,A,5,4,5,0,2015,46,1456,3.1,A,2014,72,1559,4.6,A
2347,MN,Minnesota,Saint Paul,CONCORDIA UNIVERSITY - SAINT PAUL                                ,1282 CONCORDIA AVENUE                             ,55104,5494,8,2,2016,85,1440,5.9,A,5,4,5,0,2015,68,1292,5.2,A,2014,52,1128,4.6,A
2354,MN,Minnesota,Saint Paul,HAMLINE UNIVERSITY                                               ,1536 HEWITT AVENUE                                ,55104,1284,8,2,2016,44,1277,3.4,P,5,4,5,0,2015,53,1389,3.8,P,2014,47,1375,3.4,P
2358,MN,Minnesota,Saint Paul,MACALESTER COLLEGE                                               ,1600 GRAND AVENUE                                 ,55105,1899,6,2,2016,3,349,0.8,A,5,4,5,0,2015,4,381,1,A,2014,3,373,0.8,A
2371,MN,Minnesota,Saint Paul,UNIVERSITY OF NORTHWESTERN- ST PAUL                              ,3003 SNELLING AVENUE NORTH                        ,55113,1598,8,2,2016,19,719,2.6,A,5,4,5,0,2015,13,702,1.8,A,2014,25,765,3.2,A
9058,MN,Minnesota,Saint Paul,BETHEL UNIVERSITY                                                ,3900 BETHEL DRIVE                                 ,55112,6999,8,2,2016,34,1386,2.4,P,5,4,5,0,2015,36,1402,2.5,P,2014,30,1509,1.9,P
10374,MN,Minnesota,Saint Paul,METROPOLITAN STATE UNIVERSITY                                    ,700 EAST 7TH STREET                               ,55106,5000,8,1,2016,162,2661,6,A,5,4,5,0,2015,159,2673,5.9,A,2014,149,2716,5.4,A
2353,MN,Minnesota,Saint Peter,GUSTAVUS ADOLPHUS COLLEGE                                        ,800 WEST COLLEGE AVENUE                           ,56082,1498,6,2,2016,9,609,1.4,A,5,1,5,0,2015,6,540,1.1,A,2014,7,571,1.2,A
2383,MN,Minnesota,St Bonifacius,CROWN COLLEGE                                                    ,8700 COLLEGE VIEW DRIVE                           ,55375,9001,8,2,2016,29,394,7.3,A,5,3,5,0,2015,46,491,9.3,A,2014,44,440,10,A
5534,MN,Minnesota,St Cloud,ST. CLOUD TECHNICAL AND COMMUNITY COLLEGE                        ,1540 NORTHWAY DRIVE                               ,56303,1240,5,1,2016,173,1590,10.8,A,5,6,5,0,2015,209,1698,12.3,A,2014,260,1845,14,A
2341,MN,Minnesota,St Joseph,COLLEGE OF SAINT BENEDICT                                        ,37 SOUTH COLLEGE AVENUE                           ,56374,2099,6,2,2016,5,464,1,A,5,7,5,0,2015,6,449,1.3,A,2014,2,453,0.4,A
2345,MN,Minnesota,St Paul,UNIVERSITY OF SAINT THOMAS                                       ,2115 SUMMIT AVENUE                                ,55105,1096,8,2,2016,25,2119,1.1,P,5,4,5,0,2015,45,2276,1.9,P,2014,39,2177,1.7,P
2357,MN,Minnesota,St Paul,LUTHER SEMINARY                                                  ,2481 COMO AVENUE                                  ,55108,1496,8,2,2016,1,83,1.2,A,5,4,5,0,2015,1,127,0.7,A,2014,3,95,3.1,A
2391,MN,Minnesota,St Paul,MITCHELL HAMLINE SCHOOL OF LAW                                   ,875 SUMMIT AVENUE                                 ,55105,3076,7,2,2016,12,250,4.8,A,5,4,5,0,2015,4,296,1.3,A,2014,8,306,2.6,A
5533,MN,Minnesota,St Paul,SAINT PAUL COLLEGE - A COMMUNITY & TECHNICAL COLLEGE             ,235 MARSHALL AVENUE                               ,55102,1800,5,1,2016,433,2152,20.1,A,5,4,5,0,2015,520,2486,20.9,A,2014,671,2720,24.6,A
2396,MS,Mississippi,Alcorn State,ALCORN STATE UNIVERSITY                                          ,1000 ASU DRIVE                                    ,39096,7500,8,1,2016,282,1312,21.4,A,2,2,4,0,2015,291,1485,19.5,A,2014,261,1599,16.3,A
2413,MS,Mississippi,Meridan,MERIDIAN COMMUNITY COLLEGE                                       ,910 HIGHWAY 19 NORTH                              ,39307,5890,5,1,2016,65,393,16.5,A,5,3,4,0,2015,59,480,12.2,A,2014,118,621,19,A
41748,MO,Missouri,Saint Ann,AMERICAN TRADE SCHOOL                                            ,3925 INDUSTRIAL DRIVE                             ,63074,1807,5,3,2016,5,64,7.8,A,5,1,7,0,2015,6,67,8.9,A,2014,10,81,12.3,A
2480,MO,Missouri,Saint Charles,LINDENWOOD UNIVERSITY                                            ,209 SOUTH KINGSHIGHWAY                            ,63301,1695,8,2,2016,61,3641,1.6,A,5,2,7,0,2015,76,3571,2.1,A,2014,90,3775,2.3,A
2490,MO,Missouri,Saint Joseph,MISSOURI WESTERN STATE UNIVERSITY                                ,4525 DOWNS DRIVE                                  ,64507,2294,8,1,2016,192,1437,13.3,A,5,6,7,0,2015,226,1560,14.4,A,2014,228,1613,14.1,A
8269,MO,Missouri,Saint Joseph,HILLYARD TECHNICAL CENTER                                        ,3434 FARAON STREET                                ,64506,5102,4,1,2016,3,67,4.4,A,5,6,7,0,2015,5,87,5.7,A,2014,7,60,11.6,A
41187,MO,Missouri,Saint Joseph,AMERICAN BUSINESS & TECHNOLOGY UNIVERSITY                        ,1018 WEST SAINT MAARTENS DRIVE                    ,64506,2961,6,3,2016,7,64,10.9,A,5,6,7,0,2015,23,151,15.2,A,2014,34,187,18.1,A
1632,MO,Missouri,Saint Louis,AQUINAS INSTITUTE OF THEOLOGY                                    ,23 SOUTH SPRING AVENUE                            ,63108,3323,8,2,2016,2,25,8,B,5,1,7,1,2015,3,27,11.1,B,2014,3,22,13.6,B
2457,MO,Missouri,Saint Louis,CONCORDIA SEMINARY                                               ,801 SEMINARY PLACE                                ,63105,3199,8,2,2016,0,83,0,A,5,3,7,0,2015,1,60,1.6,A,2014,0,75,0,A
2464,MO,Missouri,Saint Louis,FONTBONNE UNIVERSITY                                             ,6800 WYDOWN BOULEVARD                             ,63105,3098,8,2,2016,27,619,4.3,A,5,3,7,0,2015,35,635,5.5,A,2014,49,797,6.1,A
2466,MO,Missouri,Saint Louis,HARRIS - STOWE STATE UNIVERSITY                                  ,3026 LACLEDE AVENUE                               ,63103,2199,6,1,2016,127,584,21.7,A,2,1,7,0,2015,133,616,21.5,A,2014,157,675,23.2,A
2471,MO,Missouri,Saint Louis,SAINT LOUIS COMMUNITY COLLEGE                                    ,3221 MCKELVEY ROAD                                ,63044,2551,5,1,2016,213,1684,12.6,P,5,1,7,0,2015,261,1886,13.8,P,2014,248,2028,12.2,P
2476,MO,Missouri,Saint Louis,KENRICK - GLENNON SEMINARY                                       ,5200 GLENNON DRIVE                                ,63119,4330,8,2,2016,1,4,25,B,5,3,7,1,2015,1,4,25,B,2014,1,2,50,B
2504,MO,Missouri,Saint Louis,ST. LOUIS COLLEGE OF PHARMACY                                    ,4588 PARKVIEW PLACE                               ,63110,1088,7,2,2016,2,266,0.7,P,5,1,7,0,2015,0,257,0,P,2014,1,241,0.4,P
2506,MO,Missouri,Saint Louis,SAINT LOUIS UNIVERSITY                                           ,ONE GRAND BOULEVARD                               ,63103,2097,8,2,2016,68,2639,2.5,P,5,1,7,0,2015,78,2932,2.6,P,2014,81,2884,2.8,P
2521,MO,Missouri,Saint Louis,WEBSTER UNIVERSITY                                               ,470 EAST LOCKWOOD AVENUE                          ,63119,3194,8,2,2016,211,4352,4.8,A,5,3,7,0,2015,235,5005,4.6,A,2014,237,5064,4.6,A
4707,MO,Missouri,Saint Louis,COVENANT THEOLOGICAL SEMINARY                                    ,12330 CONWAY ROAD                                 ,63141,8609,8,2,2016,1,66,1.5,A,5,1,7,0,2015,4,86,4.6,A,2014,1,108,0.9,A
6389,MO,Missouri,Saint Louis,GOLDFARB SCHOOL OF NURSING AT BARNES-JEWISH COLLEGE              ,4483 DUNCAN                        MAILSTOP 90-36-,63110,1091,8,2,2016,6,460,1.3,P,5,1,7,0,2015,6,499,1.2,P,2014,1,455,0.2,P
7540,MO,Missouri,Saint Louis,MISSOURI BAPTIST UNIVERSITY                                      ,ONE COLLEGE PARK DRIVE                            ,63141,8698,8,2,2016,66,954,6.9,A,5,1,7,0,2015,81,1170,6.9,A,2014,90,1105,8.1,A
12500,MO,Missouri,Saint Louis,RANKEN TECHNICAL COLLEGE                                         ,4431 FINNEY AVENUE                                ,63113,2811,6,2,2016,47,849,5.5,A,5,1,7,0,2015,60,1066,5.6,A,2014,92,1138,8,A
23405,MO,Missouri,Saint Louis,SAINT LOUIS COLLEGE OF HEALTH CAREERS                            ,909 SOUTH TAYLOR                                  ,63110,1511,6,3,2016,38,510,7.4,A,5,1,7,0,2015,49,615,7.9,A,2014,73,660,11,A
25647,MO,Missouri,Saint Louis,ELAINE STEVEN BEAUTY COLLEGE                                     ,10420 WEST FLORISSANT                             ,63136,2343,3,3,2016,7,109,6.4,A,5,1,7,0,2015,7,126,5.5,A,2014,7,132,5.3,A
41740,MO,Missouri,Saint Louis,SKIN INSTITUTE                                                   ,25 RONNIES PLAZA                                  ,63126,3552,2,3,2016,3,49,6.1,A,5,2,7,0,2015,3,42,7.1,A,2014,7,47,14.8,A
2519,MO,Missouri,St Louis,UNIVERSITY OF MISSOURI - SAINT LOUIS                             ,ONE UNIVERSITY BOULEVARD                          ,63121,4499,8,1,2016,218,3475,6.2,P,5,1,7,0,2015,248,3528,7,P,2014,252,3720,6.7,P
2520,MO,Missouri,St Louis,WASHINGTON UNIVERSITY IN ST. LOUIS                               ,ONE BROOKINGS DRIVE                               ,63130,4899,8,2,2016,25,1571,1.5,P,5,1,7,0,2015,17,1672,1,P,2014,20,1708,1.1,P
8552,MO,Missouri,St Louis,STEVENS - THE INSTITUTE OF BUSINESS & ARTS                       ,1521 WASHINGTON AVENUE                            ,63103,0,6,3,2016,4,84,4.7,A,5,1,7,0,2015,11,76,14.4,A,2014,8,77,10.3,A
8645,NH,New Hampshire,Hookset,EMPIRE BEAUTY SCHOOLS                                            ,1328 HOOKSETT ROAD                                ,3106,9716,3,3,2016,10,155,6.4,A,5,1,1,0,2015,10,143,6.9,A,2014,12,146,8.2,A
22470,NH,New Hampshire,West Lebanon,NEW ENGLAND SCHOOL OF HAIR DESIGN                                ,12 INTERCHANGE DRIVE                              ,3784,2003,3,3,2016,8,79,10.1,B,5,2,1,1,2015,7,87,8,B,2014,3,31,9.6,A
22346,NJ,New Jersey,Egg Harbor Township,ATLANTIC BEAUTY & SPA ACADEMY                                    ,3003 ENGLISH CREEK AVENUE          SUITE C-3/4/4B ,8234,2621,3,3,2016,9,98,9.1,A,5,2,2,0,2015,10,122,8.1,A,2014,9,119,7.5,A
35363,NJ,New Jersey,Haskell,INSTITUTE FOR THERAPEUTIC MASSAGE                                ,1069 RINGWOOD AVENUE               SUITE 215      ,7420,1452,3,3,2016,15,105,14.2,A,5,8,2,0,2015,16,108,14.8,A,2014,10,81,12.3,A
2671,NY,New York,Annandale-On-Hudson,BARD COLLEGE                                                     ,ANNANDALE ROAD                                    ,12504,5000,8,2,2016,29,607,4.7,P,5,20,2,0,2015,11,547,2,P,2014,17,482,3.5,P
7573,NY,New York,Astoria,EMPIRE BEAUTY SCHOOL                                             ,38-15 BROADWAY                                    ,11103,4028,4,3,2016,395,2614,15.1,P,5,14,2,0,2015,268,1749,15.3,P,2014,237,1688,14,P
2697,NY,New York,Bayside,QUEENSBOROUGH COMMUNITY COLLEGE-CUNY                             ,56TH AVENUE & SPRINGFIELD BOULEVARD               ,11364,1497,5,1,2016,59,736,8,A,5,5,2,0,2015,70,754,9.2,A,2014,77,669,11.5,A
39034,NY,New York,"Bronx, Ny",AMERICAN BEAUTY SCHOOL                                           ,1380 METROPOLITAN AVENUE                          ,10462,8003,3,3,2016,12,138,8.6,A,5,7,2,0,2015,12,149,8,A,2014,18,156,11.5,A
2820,NY,New York,Brooklyn Heights,SAINT FRANCIS COLLEGE                                            ,180 REMSEN STREET                                 ,11201,4398,8,2,2016,49,595,8.2,A,5,11,2,0,2015,69,633,10.9,A,2014,56,605,9.2,A
2665,NY,New York,Flushing,VAUGHN COLLEGE OF AERONAUTICS AND TECHNOLOGY                     ,86-01 23RD AVENUE                                 ,11369,9997,8,2,2016,32,552,5.7,A,3,7,2,0,2015,21,616,3.4,A,2014,16,637,2.5,A
2690,NY,New York,Flushing,CUNY QUEENS COLLEGE                                              ,65-30 KISSENA BOULEVARD                           ,11367,1597,8,1,2016,75,1584,4.7,A,5,9,2,0,2015,70,1598,4.3,A,2014,84,1670,5,A
3978,NY,New York,Flushing,RABBINICAL SEMINARY OF AMERICA                                   ,76-01 147TH STREET                                ,11367,3148,7,2,2016,0,3,0,B,5,9,2,1,2015,,,,,2014,0,2,0,B
20937,NY,New York,Flushing,LONG ISLAND BUSINESS INSTITUTE                                   ,"136-18 39TH AVENUE, 5TH FLOOR                     ",11354,2997,5,3,2016,7,44,15.9,A,5,2,2,0,2015,7,56,12.5,A,2014,8,95,8.4,A
41337,NY,New York,Flushing,NEW YORK MEDICAL CAREER TRAINING CENTER                          ,36-09 MAIN STREET                  5TH FLOOR      ,11354,6504,4,3,2016,23,136,16.9,A,5,5,2,0,2015,13,93,13.9,A,2014,10,96,10.4,A
42232,NY,New York,Flushing,GRACE INTERNATIONAL BEAUTY SCHOOL                                ,136-31 41ST AVENUE                                ,11355,2446,3,3,2016,0,31,0,A,5,6,2,0,2015,0,9,0,B,2014,0,0,0,A
12358,NY,New York,Forest Hills,PLAZA COLLEGE                                                    ,118-33 QUEENS BOULEVARD                           ,11375,7324,6,3,2016,1,455,0.2,A,5,7,2,0,2015,3,388,0.7,A,2014,1,610,0.1,A
40433,NY,New York,Forest Hills,ACE INSTITUTE OF TECHNOLOGY                                      ,109-19 72ND RD.                    SUITE 4F       ,11375,5337,3,3,2016,14,103,13.5,A,5,9,2,0,2015,14,87,16,A,2014,11,66,16.6,A
2823,NY,New York,Jamaica,SAINT JOHN'S UNIVERSITY                                          ,8000 UTOPIA PARKWAY                               ,11439,1343,8,2,2016,191,3481,5.4,P,5,6,2,0,2015,167,3749,4.4,P,2014,187,4158,4.4,P
4759,NY,New York,Jamaica,CUNY YORK COLLEGE                                                ,94-20 GUY R BREWER BOULEVARD                      ,11451,1,8,1,2016,29,522,5.5,A,5,6,2,0,2015,35,570,6.1,A,2014,39,573,6.8,A
33583,NY,New York,Jamaica,ALLEN SCHOOL                                                     ,163-18 JAMAICA AVENUE              3RD FLOOR      ,11432,4901,5,3,2016,278,1540,18,A,5,6,2,0,2015,330,1831,18,A,2014,266,1442,18.4,A
35373,NY,New York,Jamaica,NEW YORK AUTOMOTIVE & DIESEL INSTITUTE                           ,178-18 LIBERTY AVENUE                             ,11433,1433,5,3,2016,55,280,19.6,A,5,14,2,0,2015,64,290,22,A,2014,74,388,19,A
7518,NY,New York,Long Island City,APEX TECHNICAL SCHOOL                                            ,24-02 QUEENS PLAZA SOUTH                          ,11101,4602,3,3,2016,274,974,28.1,A,5,8,2,0,2015,267,989,26.9,A,2014,296,1198,24.7,A
10051,NY,New York,Long Island City,CUNY LAGUARDIA COMMUNITY COLLEGE                                 ,31-10 THOMSON AVENUE                              ,11101,3083,5,1,2016,78,631,12.3,A,3,14,2,0,2015,61,642,9.5,A,2014,78,675,11.5,A
10551,NY,New York,Long Island City,NEW YORK SCHOOL FOR MEDICAL & DENTAL ASSISTANTS                  ,33-10 QUEENS BOULEVARD             2ND FLOOR      ,11101,2327,5,3,2016,20,259,7.7,A,5,9,2,0,2015,21,304,6.9,A,2014,20,438,4.5,A
11830,NY,New York,Long Island City,BERK TRADE & BUSINESS SCHOOL                                     ,33-09 QUEENS BOULEVARD             2ND FLOOR      ,11101,0,2,3,2016,67,223,30,A,5,10,2,0,2015,52,216,24,A,2014,30,137,21.8,A
31913,NY,New York,Long Island City,CUNY SCHOOL OF LAW '(THE)'                                       ,2 COURT SQUARE                                    ,11101,4356,7,1,2016,2,114,1.7,A,5,5,2,0,2015,3,139,2.1,A,2014,3,143,2,A
2788,NY,New York,Niagara University,NIAGARA UNIVERSITY                                               ,LEWISTON ROAD                                     ,14109,2010,8,2,2016,50,959,5.2,A,5,28,2,0,2015,47,937,5,A,2014,40,928,4.3,A
2760,NY,New York,Purchase,MANHATTANVILLE COLLEGE                                           ,2900 PURCHASE STREET                              ,10577,2132,8,2,2016,26,579,4.4,A,5,18,2,0,2015,32,603,5.3,A,2014,44,686,6.4,A
6791,NY,New York,Purchase,SUNY COLLEGE AT PURCHASE                                         ,735 ANDERSON HILL ROAD                            ,10577,1400,8,1,2016,61,994,6.1,A,5,18,2,0,2015,66,1023,6.4,A,2014,58,953,6,A
12364,NY,New York,Rego Park,ST. PAUL'S SCHOOL OF NURSING                                     ,97-77 QUEENS BOULEVARD                            ,11374,0,5,3,2016,10,225,4.4,A,5,5,2,0,2015,9,309,2.9,A,2014,20,306,6.5,A
36523,NY,New York,Rego Park,METROPOLITAN LEARNING INSTITUTE                                  ,97-77 QUEENS BOULEVARD             9TH FLOOR      ,11374,2101,3,2,2016,9,111,8.1,B,5,9,2,1,2015,10,213,4.6,B,2014,6,84,7.1,A
2703,NY,New York,Riverdale,COLLEGE OF MOUNT SAINT VINCENT                                   ,6301 RIVERDALE AVENUE                             ,10471,1093,8,2,2016,38,554,6.8,A,3,17,2,0,2015,35,576,6,A,2014,39,548,7.1,A
2758,NY,New York,Riverdale,MANHATTAN COLLEGE                                                ,4513 MANHATTAN COLLEGE PARKWAY                    ,10471,4098,8,2,2016,32,846,3.7,A,5,17,2,0,2015,23,803,2.8,A,2014,23,759,3,A
2956,NC,North Carolina,Winston Salem,PIEDMONT INTERNATIONAL UNIVERSITY                                ,420 S. BROAD STREET                               ,27101,5025,8,2,2016,35,336,10.4,P,5,12,4,0,2015,51,377,13.5,P,2014,75,416,18,P
30514,OH,Ohio,Concord Township,AUBURN CAREER CENTER                                             ,8140 AUBURN ROAD                                  ,44077,9723,3,1,2016,14,105,13.3,A,5,14,5,0,2015,19,100,19,A,2014,12,54,22.2,A
9941,OH,Ohio,Saint Clairsville,BELMONT COLLEGE                                                  ,68094 HAMMOND ROAD                                ,43950,9766,5,1,2016,68,349,19.4,A,5,18,5,0,2015,91,486,18.7,A,2014,171,727,23.5,A
10880,OH,Ohio,Saint Martin,CHATFIELD COLLEGE                                                ,20918 STATE ROUTE 251                             ,45118,9705,5,2,2016,30,211,14.2,A,5,2,5,0,2015,28,243,11.5,A,2014,35,235,14.8,A
3198,OR,Oregon,Mcminnville,LINFIELD COLLEGE                                                 ,900 SOUTHEAST BAKER STREET                        ,97128,6894,8,2,2016,19,744,2.5,A,5,1,10,0,2015,20,815,2.4,A,2014,17,863,1.9,A
3988,PA,Pennsylvania,Aston,NEUMANN UNIVERSITY                                               ,ONE NEUMANN DRIVE                                 ,19014,1298,8,2,2016,91,926,9.8,A,5,7,3,0,2015,90,917,9.8,A,2014,84,883,9.5,A
9723,PA,Pennsylvania,Feasterville Trevose,ARIA HEALTH SCHOOL OF NURSING                                    ,THREE NESHAMINY INTERPLEX                         ,19053,6939,11,2,2016,5,91,5.4,A,5,1,3,0,2015,1,73,1.3,A,2014,4,88,4.5,A
25545,PA,Pennsylvania,Hazle Township,HAZLETON AREA CAREER CENTER                                      ,1451 WEST 23RD STREET                             ,18202,1597,3,1,2016,1,49,2,B,5,11,3,1,2015,2,52,3.8,B,2014,2,61,3.2,B
3276,PA,Pennsylvania,Immaculata,IMMACULATA UNIVERSITY                                            ,1145 KING ROAD                                    ,19345,647,8,2,2016,38,721,5.2,A,5,7,3,0,2015,48,822,5.8,A,2014,57,849,6.7,A
37663,PA,Pennsylvania,King Of Prussia,CORTIVA INSTITUTE                                                ,211 SOUTH GULPH ROAD               SUITE 100      ,19406,3101,3,3,2016,34,214,15.8,A,5,7,3,0,2015,44,226,19.4,A,2014,36,180,20,A
6560,PA,Pennsylvania,Mckees Rocks,OHIO VALLEY GENERAL HOSPITAL SCHOOL OF NURSING                   ,25 HECKEL ROAD                                    ,15136,1694,3,2,2016,2,31,6.4,A,5,14,3,0,2015,3,70,4.2,B,2014,6,87,6.8,B
3359,PA,Pennsylvania,Moon Township,ROBERT MORRIS UNIVERSITY                                         ,6001 UNIVERSITY BOULEVARD                         ,15108,1189,8,2,2016,64,1396,4.5,A,5,18,3,0,2015,66,1450,4.5,A,2014,58,1383,4.1,A
3241,PA,Pennsylvania,Radnor,CABRINI UNIVERSITY                                               ,610 KING OF PRUSSIA ROAD                          ,19087,3698,8,2,2016,51,616,8.2,A,5,6,3,0,2015,52,766,6.7,A,2014,42,824,5,A
2670,PA,Pennsylvania,South Abington Twp.,CLARKS SUMMIT UNIVERSITY                                         ,538 VENARD ROAD                                   ,18411,1250,8,2,2016,14,218,6.4,A,5,10,3,0,2015,14,206,6.7,A,2014,17,230,7.3,A
3259,PA,Pennsylvania,St Davids,EASTERN UNIVERSITY                                               ,1300 EAGLE ROAD                                   ,19087,3696,8,2,2016,88,1245,7,P,5,7,3,0,2015,88,1228,7.1,P,2014,80,1232,6.4,P
3329,PA,Pennsylvania,University Park,PENNSYLVANIA STATE UNIVERSITY (THE)                              ,PRESIDENT'S OFFICE                 201 OLD MAIN   ,16802,1503,8,1,2016,919,18631,4.9,P,5,5,3,0,2015,983,19227,5.1,P,2014,1010,19272,5.2,P
22897,PA,Pennsylvania,Wilkes Barre,JOLIE HEALTH AND BEAUTY ACADEMY                                  ,125 NORTH WILKES BARRE BOULEVARD                  ,18702,5354,3,3,2016,67,228,29.3,A,5,11,3,0,2015,48,243,19.7,A,2014,28,139,20.1,A
30018,TN,Tennessee,Gallain,WELCH COLLEGE                                                    ,1045 BISON TRAIL                                  ,37066,8460,8,2,2016,4,79,5,A,5,5,4,0,2015,6,68,8.8,A,2014,8,74,10.8,A
7783,TN,Tennessee,Madison,MIDDLE TENNESSEE SCHOOL OF ANESTHESIA                            ,315 HOSPITAL DRIVE                                ,37115,417,8,2,2016,0,53,0,A,5,5,4,0,2015,0,51,0,A,2014,0,59,0,A
21253,TN,Tennessee,Madison,NASHVILLE COLLEGE OF MEDICAL CAREERS                             ,1556 CRESTVIEW DRIVE                              ,37115,2120,3,3,2016,6,110,5.4,P,5,5,4,0,2015,7,154,4.5,P,2014,8,149,5.3,P
3480,TN,Tennessee,Mckenzie,BETHEL UNIVERSITY                                                ,325 CHERRY AVENUE                                 ,38201,1705,8,2,2016,278,2466,11.2,A,5,8,4,0,2015,355,2907,12.2,A,2014,367,2633,13.9,A
3511,TN,Tennessee,Milligan College,MILLIGAN COLLEGE                                                 ,ONE BLOWERS BOULEVARD                             ,37682,4001,8,2,2016,14,357,3.9,P,5,1,4,0,2015,12,384,3.1,P,2014,15,374,4,P
42239,TN,Tennessee,Nashvile,MIND BODY INSTITUTE                                              ,"2416 MUSIC VALLEY DRIVE, SUITE 119                ",37214,1012,2,3,2016,1,37,2.7,B,5,5,4,1,2015,0,16,0,B,2014,0,2,0,B
25950,TN,Tennessee,West Fayetteville,HAIR ACADEMY THE                                                 ,513 COLLEGE STREET                                ,37334,2909,3,3,2016,5,30,16.6,A,5,4,4,0,2015,5,36,13.8,A,2014,5,44,11.3,A
22859,TX,Texas,Mcallen,UCAS UNIVERSITY OF COSMETOLOGY ARTS & SCIENCES                   ,8401 NORTH 10TH STREET                            ,78504,391,3,3,2016,44,375,11.7,A,5,15,6,0,2015,33,292,11.3,A,2014,28,315,8.8,A
41784,TX,Texas,Mcallen,VOGUE COLLEGE OF COSMETOLOGY                                     ,800 FERN AVENUE                                   ,78501,1945,3,3,2016,7,134,5.2,A,5,15,6,0,2015,7,150,4.6,A,2014,4,92,4.3,A
42133,TX,Texas,Mcallen,SOUTHERN TEXAS CAREERS ACADEMY                                   ,601 EAST NOLANA                    SUITE C        ,78504,2569,3,3,2016,12,40,30,A,5,15,6,0,2015,10,59,16.9,A,2014,5,52,9.6,A
23614,TX,Texas,Mckinney,COLLIN COUNTY COMMUNITY COLLEGE                                  ,2200 WEST UNIVERSITY DRIVE                        ,75070,8001,5,1,2016,490,3244,15.1,A,5,3,6,0,2015,607,3788,16,A,2014,608,4015,15.1,A
25568,UT,Utah,Salt Lake,PAUL MITCHELL THE SCHOOL SALT LAKE CITY                          ,1969 EAST MURRAY HOLLADAY ROAD                    ,84117,7204,3,3,2016,38,261,14.5,A,5,2,8,0,2015,58,324,17.9,A,2014,52,315,16.5,A
3671,UT,Utah,St George,DIXIE STATE UNIVERSITY                                           ,225 SOUTH 700 EAST                                ,84770,3876,8,1,2016,201,1824,11,A,5,2,8,0,2015,234,1914,12.2,A,2014,265,1991,13.3,A
21435,VT,Vermont,Craftsbury Common,STERLING COLLEGE                                                 ,16 STERLING DRIVE                                 ,5827,72,6,2,2016,2,34,5.8,A,5,AL      ,1,0,2015,2,42,4.7,A,2014,10,111,9,B
3946,VI,Virgin Islands,St. Thomas,UNIVERSITY OF THE VIRGIN ISLANDS                                 ,#2 JOHN BREWERS BAY                               ,802,9990,8,1,2016,34,371,9.1,P,2,AL      ,2,0,2015,52,394,13.1,P,2014,33,385,8.5,P
3713,VA,Virginia,Hampden Sydney,HAMPDEN SYDNEY COLLEGE                                           ,COLLEGE ROAD                                      ,23943,128,6,2,2016,14,222,6.3,A,5,5,3,0,2015,7,198,3.5,A,2014,11,211,5.2,A
3707,VA,Virginia,South Prince George,RICHARD BLAND COLLEGE                                            ,11301 JOHNSON ROAD                                ,23805,7100,5,1,2016,43,312,13.7,A,5,4,3,0,2015,43,317,13.5,A,2014,32,271,11.8,A
3742,VA,Virginia,Sweet Briar,SWEET BRIAR COLLEGE                                              ,134 CHAPEL DRIVE                                  ,24595,9998,8,2,2016,3,162,1.8,A,5,6,3,0,2015,5,157,3.1,A,2014,5,132,3.7,A
3816,WV,West Virginia,Mt Gay,SOUTHERN WEST VIRGINIA COMMUNITY AND TECHNICAL COLLEGE           ,2900 DEMPSEY BRANCH ROAD                          ,25637,2900,5,1,2016,20,93,21.5,P,5,3,3,0,2015,15,94,15.9,P,2014,28,90,31.1,P
3892,WI,Wisconsin,Depere,SAINT NORBERT COLLEGE                                            ,100 GRANT STREET                                  ,54115,2099,8,2,2016,12,542,2.2,A,5,8,5,0,2015,12,594,2,A,2014,10,530,1.8,A
3861,WI,Wisconsin,Fond Du Lac,MARIAN UNIVERSITY                                                ,45 SOUTH NATIONAL AVENUE                          ,54935,4699,8,2,2016,44,616,7.1,A,5,6,5,0,2015,48,646,7.4,A,2014,47,669,7,A
9256,WI,Wisconsin,Fond Du Lac,MORAINE PARK TECHNICAL COLLEGE                                   ,235 NORTH NATIONAL AVENUE                         ,54936,1940,5,1,2016,79,791,9.9,A,5,6,5,0,2015,118,878,13.4,A,2014,127,965,13.1,A
