OPEID,state abv,state,city_x,Name,Address,Zip Code,Zip Ext,"Prog
Length","School
Type",Year 1,"
Num 1","
Denom 1",DRate 1,PRate 1,Ethnic Code,Cong Dis,Region,"Average or
Greater than 30",Year 2,"
Num 2","
Denom 2",DRate 2,PRate 2,Year 3,"
Num 3","
Denom 3",DRate 3,PRate 3,zip,lat,lng,city_y,state_id,state_name,zcta,parent_zcta,population,density,county_fips,county_name,county_weights,county_names_all,county_fips_all,imprecise,military,timezone,age_median,male,female,married,family_size,income_household_median,income_household_six_figure,home_ownership,home_value,rent_median,education_college_or_above,labor_force_participation,unemployment_rate,race_white,race_black,race_asian,race_native,race_pacific,race_other,race_multiple
1050,AL,Alabama,Tuskegee,TUSKEGEE UNIVERSITY                                              ,308 KRESGE CENTER                                 ,36088,1645,8,2,2016,115,850,13.5,P,2,3,4,0,2015,101.0,876.0,11.5,P,2014,93,806,11.5,P,36088,32.41685,-85.71784,Tuskegee Institute,AL,Alabama,True,,4802.0,549.6,1087.0,Macon,{'01087':100},Macon,01087,False,False,America/Chicago,21.7,41.7,58.3,12.2,3.05,27743.0,9.3,42.3,80791.0,645.0,26.0,50.7,16.7,1.2,97.4,1.0,0.2,0.0,0.0,0.1
42200,AR,Arkansas,Fort Smith,DESIGNER BARBER & STYLIST SCHOOL                                 ,2409 SOUTH 56TH STREET             SUITE 118      ,72903,3753,3,3,2016,6,30,20.0,A,5,3,6,0,2015,6.0,38.0,15.7,B,2014,1,10,10.0,B,72903,35.35138,-94.36031,Fort Smith,AR,Arkansas,True,,26143.0,602.5,5131.0,Sebastian,{'05131':100},Sebastian,05131,False,False,America/Chicago,38.8,47.3,52.7,47.4,2.91,44690.0,19.9,48.3,164722.0,658.0,27.2,60.2,3.6,78.5,5.9,5.8,1.4,0.1,3.5,4.7
1104,AR,Arkansas,Helena-West Helena,PHILLIPS COMMUNITY COLLEGE OF THE UNIVERSITY OF ARKANSAS         ,1000 CAMPUS DRIVE                                 ,72342,0,5,1,2016,20,114,17.5,B,5,1,6,1,2015,4.0,35.0,11.4,A,2014,13,59,22.0,A,72342,34.458059999999996,-90.68596,Helena,AR,Arkansas,True,,4966.0,23.9,5107.0,Phillips,{'05107':100},Phillips,05107,False,False,America/Chicago,35.6,48.5,51.5,30.9,3.38,25985.0,16.2,39.2,99156.0,568.0,20.8,51.6,14.5,32.4,65.5,0.2,0.0,0.0,0.5,1.4
39745,CA,California,Canoga Park,CALIFORNIA CAREER COLLEGE                                        ,7003 OWENSMOUTH AVENUE                            ,91303,2006,5,3,2016,2,40,5.0,A,5,27,9,0,2015,7.0,71.0,9.8,A,2014,2,40,5.0,A,91303,34.19794,-118.60156,Canoga Park,CA,California,True,,31053.0,4792.8,6037.0,Los Angeles,{'06037':100},Los Angeles,06037,False,False,America/Los_Angeles,32.1,51.4,48.6,40.0,3.78,55130.0,24.2,24.1,432049.0,1446.0,24.1,71.7,5.4,52.3,3.4,11.2,0.5,0.3,30.2,2.2
7130,CA,California,Granada Hills,NEWBERRY SCHOOL OF BEAUTY                                        ,16852 DEVONSHIRE STREET                           ,91344,7404,3,3,2016,5,88,5.6,P,5,27,9,0,2015,1.0,81.0,1.2,P,2014,6,92,6.5,P,91344,34.29392,-118.5075,Granada Hills,CA,California,True,,53266.0,1217.5,6037.0,Los Angeles,{'06037':100},Los Angeles,06037,False,False,America/Los_Angeles,43.3,50.0,50.0,51.3,3.52,92286.0,45.9,75.1,593579.0,1754.0,39.0,64.0,6.4,59.7,4.6,16.7,0.7,0.2,13.5,4.7
20912,CA,California,Hollywood,ELEGANCE INTERNATIONAL                                           ,6767 SUNSET BOULEVARD                             ,90028,6106,3,3,2016,52,318,16.3,A,5,33,9,0,2015,12.0,181.0,6.6,A,2014,8,72,11.1,A,90028,34.09989,-118.32692,Los Angeles,CA,California,True,,30734.0,7273.3,6037.0,Los Angeles,{'06037':100},Los Angeles,06037,False,False,America/Los_Angeles,35.7,55.0,45.0,21.3,2.89,43998.0,18.3,4.7,746587.0,1364.0,48.4,74.7,9.1,56.7,9.9,10.4,0.4,0.2,17.1,5.2
21618,CA,California,Hollywood,MUSICIANS INSTITUTE                                              ,6752 HOLLYWOOD BOULEVARD                          ,90028,6157,8,3,2016,33,432,7.6,A,5,33,9,0,2015,41.0,480.0,8.5,A,2014,52,542,9.5,A,90028,34.09989,-118.32692,Los Angeles,CA,California,True,,30734.0,7273.3,6037.0,Los Angeles,{'06037':100},Los Angeles,06037,False,False,America/Los_Angeles,35.7,55.0,45.0,21.3,2.89,43998.0,18.3,4.7,746587.0,1364.0,48.4,74.7,9.1,56.7,9.9,10.4,0.4,0.2,17.1,5.2
40373,CA,California,Hollywood,LOS ANGELES FILM SCHOOL (THE)                                    ,6363 WEST SUNSET BOULEVARD                        ,90028,7300,6,3,2016,193,1077,17.9,A,5,31,9,0,2015,267.0,1205.0,22.1,A,2014,281,1384,20.3,A,90028,34.09989,-118.32692,Los Angeles,CA,California,True,,30734.0,7273.3,6037.0,Los Angeles,{'06037':100},Los Angeles,06037,False,False,America/Los_Angeles,35.7,55.0,45.0,21.3,2.89,43998.0,18.3,4.7,746587.0,1364.0,48.4,74.7,9.1,56.7,9.9,10.4,0.4,0.2,17.1,5.2
40764,CA,California,Hollywood,GNOMON                                                           ,1015 NORTH CAHUENGA BOULEVARD      SUITE 5430I    ,90038,2616,6,3,2016,1,49,2.0,A,5,31,9,0,2015,1.0,39.0,2.5,A,2014,1,31,3.2,A,90038,34.08876,-118.32652,Los Angeles,CA,California,True,,27660.0,7127.3,6037.0,Los Angeles,{'06037':100},Los Angeles,06037,False,False,America/Los_Angeles,33.8,53.3,46.7,29.2,3.3,39984.0,14.6,8.8,759533.0,1229.0,31.9,73.2,7.1,42.6,6.0,5.4,0.6,0.0,40.6,4.8
1317,CA,California,La Jolla,"UNIVERSITY OF CALIFORNIA, SAN DIEGO                              ",9500 GILMAN DRIVE                  SUITE #0013 - 4,92093,13,8,1,2016,80,4572,1.7,P,5,53,9,0,2015,105.0,4928.0,2.1,P,2014,118,5436,2.1,P,92093,32.87706,-117.23058,La Jolla,CA,California,False,92037.0,,,6073.0,San Diego,"{""06073"": 100}",San Diego,06073,False,False,America/Los_Angeles,,,,,,,,,,,,,,,,,,,,
11460,CA,California,La Jolla,NATIONAL UNIVERSITY                                              ,11255 NORTH TORREY PINES ROAD                     ,92037,1011,8,2,2016,310,6234,4.9,A,5,53,9,0,2015,377.0,6770.0,5.5,A,2014,415,7195,5.7,A,92037,32.855059999999995,-117.25012,La Jolla,CA,California,True,,39724.0,1382.3,6073.0,San Diego,{'06073':100},San Diego,06073,False,False,America/Los_Angeles,44.5,48.8,51.2,54.1,2.92,105904.0,53.2,58.2,1437621.0,1976.0,74.6,57.9,4.7,81.7,1.8,10.5,0.1,0.1,1.5,4.4
7607,CA,California,Hollywood,CONCORDE CAREER COLLEGE                                          ,12412 VICTORY BOULEVARD                           ,91606,3134,5,3,2016,30,494,6.0,A,5,28,9,0,2015,66.0,503.0,13.1,A,2014,64,524,12.2,A,91606,34.1866,-118.38871,North Hollywood,CA,California,True,,44476.0,5208.8,6037.0,Los Angeles,{'06037':100},Los Angeles,06037,False,False,America/Los_Angeles,36.3,50.0,50.0,43.5,3.6,46397.0,20.5,30.6,532287.0,1243.0,21.5,64.4,7.0,69.3,4.0,5.5,0.3,0.5,18.1,2.3
41596,CA,California,Hollywood,GALAXY MEDICAL COLLEGE                                           ,6400 LAUREL CANYON BOULEVARD       SUITE 115      ,91606,1593,3,3,2016,13,74,17.5,B,5,28,9,1,2015,3.0,30.0,10.0,A,2014,7,30,23.3,A,91606,34.1866,-118.38871,North Hollywood,CA,California,True,,44476.0,5208.8,6037.0,Los Angeles,{'06037':100},Los Angeles,06037,False,False,America/Los_Angeles,36.3,50.0,50.0,43.5,3.6,46397.0,20.5,30.6,532287.0,1243.0,21.5,64.4,7.0,69.3,4.0,5.5,0.3,0.5,18.1,2.3
1153,CA,California,Northridge,"CALIFORNIA STATE UNIVERSITY, NORTHRIDGE                          ",18111 NORDHOFF                                    ,91330,8307,8,1,2016,264,6973,3.7,P,3,27,9,0,2015,413.0,7546.0,5.4,P,2014,372,7110,5.2,P,91330,34.24765,-118.52606999999999,Northridge,CA,California,True,,3273.0,3096.7,6037.0,Los Angeles,{'06037':100},Los Angeles,06037,False,False,America/Los_Angeles,19.8,40.6,59.4,2.3,,,,,,,48.1,45.1,26.6,44.1,14.3,19.0,0.1,0.6,14.1,7.8
41898,CA,California,Northridge,ACADEMY FOR SALON PROFESSIONALS                                  ,19520 NORDHOFF STREET              SUITE # 9      ,91324,2305,3,3,2016,6,52,11.5,A,5,30,9,0,2015,6.0,53.0,11.3,A,2014,9,73,12.3,A,91324,34.23901,-118.54958,Northridge,CA,California,True,,29617.0,2433.8,6037.0,Los Angeles,{'06037':100},Los Angeles,06037,False,False,America/Los_Angeles,37.4,53.7,46.3,43.3,3.53,75949.0,40.3,51.6,588323.0,1636.0,40.6,63.0,4.1,56.3,6.8,18.3,0.3,0.2,13.9,4.3
41460,CA,California,Panorama City,NATIONAL CAREER COLLEGE                                          ,14355 ROSCOE BOULEVARD             1ST FLOOR      ,91402,4222,5,3,2016,30,179,16.7,A,5,28,9,0,2015,16.0,74.0,21.6,A,2014,10,65,15.3,A,91402,34.224109999999996,-118.44481,Panorama City,CA,California,True,,70686.0,7232.8,6037.0,Los Angeles,{'06037':100},Los Angeles,06037,False,False,America/Los_Angeles,33.4,49.3,50.7,43.3,3.91,42857.0,16.3,32.9,385244.0,1241.0,17.4,68.4,9.4,39.9,3.5,14.2,0.6,0.1,40.4,1.4
36463,CA,California,Paso Robles,DESIGN'S SCHOOL OF COSMETOLOGY                                   ,2727 BUENA VISTA DRIVE             SUITE 105      ,93446,9530,3,3,2016,16,122,13.1,A,5,22,9,0,2015,24.0,111.0,21.6,A,2014,24,106,22.6,A,93446,35.66353,-120.73097,Paso Robles,CA,California,True,,44753.0,40.4,6079.0,San Luis Obispo,{'06079':100},San Luis Obispo,06079,False,False,America/Los_Angeles,40.6,49.5,50.5,55.8,3.06,65694.0,32.7,66.2,444784.0,1195.0,24.9,63.1,3.5,89.8,1.1,1.1,0.4,0.0,4.9,2.7
41812,CA,California,Reseda,SOUTHERN CALIFORNIA HEALTH INSTITUTE (SOCHI)                     ,18040 SHERMAN WAY                  SUITE 500      ,91335,3100,3,3,2016,77,387,19.8,A,5,27,9,0,2015,87.0,351.0,24.7,A,2014,56,251,22.3,A,91335,34.20105,-118.54066999999999,Reseda,CA,California,True,,80524.0,4373.7,6037.0,Los Angeles,{'06037':100},Los Angeles,06037,False,False,America/Los_Angeles,37.3,49.4,50.6,43.5,3.84,60413.0,27.7,47.5,459493.0,1395.0,25.1,65.4,6.0,58.2,4.3,13.2,0.9,0.1,19.9,3.4
41913,CA,California,Reseda,ANNENBERG SCHOOL OF NURSING                                      ,19300 SHERMAN WAY                                 ,91335,3711,3,2,2016,2,29,6.8,B,5,30,9,1,2015,0.0,15.0,0.0,B,2014,0,10,0.0,B,91335,34.20105,-118.54066999999999,Reseda,CA,California,True,,80524.0,4373.7,6037.0,Los Angeles,{'06037':100},Los Angeles,06037,False,False,America/Los_Angeles,37.3,49.4,50.6,43.5,3.84,60413.0,27.7,47.5,459493.0,1395.0,25.1,65.4,6.0,58.2,4.3,13.2,0.9,0.1,19.9,3.4
41582,CA,California,Sherman Oaks,PAUL MITCHELL THE SCHOOL SHERMAN OAKS                            ,"15301 VENTURA BOULEVARD, UNIT P2                  ",91403,5882,3,3,2016,18,172,10.4,A,5,28,9,0,2015,22.0,162.0,13.5,A,2014,9,161,5.5,A,91403,34.14659,-118.46286,Sherman Oaks,CA,California,True,,25218.0,2497.2,6037.0,Los Angeles,{'06037':100},Los Angeles,06037,False,False,America/Los_Angeles,39.8,48.3,51.7,46.2,2.84,95944.0,48.4,44.2,915988.0,1749.0,60.6,74.8,8.3,80.1,6.3,7.2,0.4,0.1,1.3,4.6
12550,CA,California,Sylmar,LOS ANGELES MISSION COLLEGE                                      ,13356 ELDRIDGE AVENUE                             ,91342,3200,5,1,2016,25,203,12.3,A,3,27,9,0,2015,35.0,248.0,14.1,A,2014,28,200,14.0,A,91342,34.31515,-118.3851,Sylmar,CA,California,True,,96487.0,642.6,6037.0,Los Angeles,{'06037':100},Los Angeles,06037,False,False,America/Los_Angeles,34.5,50.5,49.5,44.7,4.16,70106.0,32.4,65.5,428162.0,1525.0,17.5,63.8,4.5,73.8,3.6,5.3,1.0,0.1,13.6,2.7
21102,CA,California,Tarzana,COLUMBIA COLLEGE HOLLYWOOD                                       ,18618 OXNARD STREET                               ,91356,1411,6,2,2016,45,339,13.2,P,5,27,9,0,2015,28.0,272.0,10.2,P,2014,8,138,5.7,A,91356,34.15508,-118.54751,Tarzana,CA,California,True,,30804.0,1550.7,6037.0,Los Angeles,{'06037':100},Los Angeles,06037,False,False,America/Los_Angeles,42.0,49.0,51.0,45.9,3.14,74561.0,39.0,56.7,876536.0,1546.0,47.2,64.2,6.8,77.1,5.2,6.7,0.1,0.0,6.4,4.5
25459,CA,California,Tarzana,HYPNOSIS MOTIVATION INSTITUTE                                    ,"18607 VENTURA BLVD, SUITE 310                     ",91356,4154,3,2,2016,3,107,2.8,A,5,27,9,0,2015,8.0,100.0,8.0,A,2014,18,101,17.8,A,91356,34.15508,-118.54751,Tarzana,CA,California,True,,30804.0,1550.7,6037.0,Los Angeles,{'06037':100},Los Angeles,06037,False,False,America/Los_Angeles,42.0,49.0,51.0,45.9,3.14,74561.0,39.0,56.7,876536.0,1546.0,47.2,64.2,6.8,77.1,5.2,6.7,0.1,0.0,6.4,4.5
1132,CA,California,Valencia,CALIFORNIA INSTITUTE OF THE ARTS                                 ,24700 MCBEAN PARKWAY                              ,91355,2397,8,2,2016,16,320,5.0,A,5,25,9,0,2015,25.0,392.0,6.3,A,2014,19,362,5.2,A,91355,34.424659999999996,-118.58923,Valencia,CA,California,True,,31455.0,812.1,6037.0,Los Angeles,{'06037':100},Los Angeles,06037,False,False,America/Los_Angeles,40.7,50.0,50.0,50.6,3.09,92707.0,46.3,58.8,528734.0,1933.0,45.6,65.2,5.2,71.6,3.5,12.0,0.2,0.1,5.6,7.0
41589,CA,California,Valencia,FLAIR BEAUTY COLLEGE                                             ,23754 VALENCIA BOULEVARD                          ,91355,2196,3,3,2016,3,39,7.6,A,5,25,9,0,2015,1.0,35.0,2.8,A,2014,1,45,2.2,A,91355,34.424659999999996,-118.58923,Valencia,CA,California,True,,31455.0,812.1,6037.0,Los Angeles,{'06037':100},Los Angeles,06037,False,False,America/Los_Angeles,40.7,50.0,50.0,50.6,3.09,92707.0,46.3,58.8,528734.0,1933.0,45.6,65.2,5.2,71.6,3.5,12.0,0.2,0.1,5.6,7.0
1228,CA,California,Valley Glen,LOS ANGELES VALLEY COLLEGE                                       ,5800 FULTON AVENUE                                ,91401,4096,5,1,2016,45,439,10.2,A,3,28,9,0,2015,67.0,492.0,13.6,A,2014,64,425,15.0,A,91401,34.17812,-118.43146000000002,Van Nuys,CA,California,True,,41412.0,4392.5,6037.0,Los Angeles,{'06037':100},Los Angeles,06037,False,False,America/Los_Angeles,36.2,50.6,49.4,42.6,3.41,54058.0,27.1,34.1,645162.0,1318.0,33.5,70.5,7.4,61.7,5.0,5.5,0.8,0.0,23.6,3.5
6731,CA,California,Van Nuys,CASA LOMA COLLEGE                                                ,6725 KESTER AVENUE                                ,91405,4523,5,2,2016,7,236,2.9,A,5,28,9,0,2015,33.0,348.0,9.4,A,2014,31,391,7.9,A,91405,34.201190000000004,-118.44811000000001,Van Nuys,CA,California,True,,55384.0,5967.9,6037.0,Los Angeles,{'06037':100},Los Angeles,06037,False,False,America/Los_Angeles,33.4,49.2,50.8,40.8,3.73,43548.0,15.4,26.6,457292.0,1224.0,20.9,71.1,9.3,37.1,4.3,7.0,0.2,0.1,48.7,2.6
25916,CA,California,Van Nuys,NORTH-WEST COLLEGE                                               ,14540 HAYNES STREET                               ,91411,1611,3,3,2016,1,184,0.5,A,5,29,9,0,2015,5.0,147.0,3.4,A,2014,4,151,2.6,A,91411,34.17855,-118.45922,Van Nuys,CA,California,True,,25801.0,4655.8,6037.0,Los Angeles,{'06037':100},Los Angeles,06037,False,False,America/Los_Angeles,34.9,49.2,50.8,37.3,3.4,54555.0,23.2,26.9,621273.0,1361.0,34.8,73.8,6.6,69.5,6.0,6.9,0.0,0.1,14.5,3.0
41145,CA,California,West Hills,VALLEY COLLEGE OF MEDICAL CAREERS                                ,8399 TOPANGA CANYON BOULEVARD      SUITE 200      ,91304,2354,5,3,2016,13,77,16.8,A,5,30,9,0,2015,10.0,52.0,19.2,A,2014,12,66,18.1,A,91304,34.22466,-118.6325,Canoga Park,CA,California,True,,53761.0,2062.1,6037.0,Los Angeles,"{'06037':99.52,'06111':0.48}",Los Angeles|Ventura,06037|06111,False,False,America/Los_Angeles,38.2,49.7,50.3,46.0,3.56,68282.0,32.4,50.8,571509.0,1419.0,29.6,69.0,6.0,50.9,5.4,14.6,0.3,0.1,24.8,3.9
1224,CA,California,Wilmington,LOS ANGELES HARBOR COLLEGE                                       ,1111 FIGUEROA PLACE                               ,90744,2397,5,1,2016,9,117,7.6,P,3,36,9,0,2015,11.0,102.0,10.7,P,2014,23,119,19.3,P,90744,33.77864,-118.26167,Wilmington,CA,California,True,,57206.0,2491.9,6037.0,Los Angeles,{'06037':100},Los Angeles,06037,False,False,America/Los_Angeles,30.2,50.4,49.6,40.2,4.33,47776.0,16.3,37.2,374902.0,1111.0,7.6,64.4,7.0,53.9,2.4,2.9,4.0,0.4,32.6,3.7
1226,CA,California,Woodland Hills,LOS ANGELES PIERCE COLLEGE                                       ,6201 WINNETKA AVENUE                              ,91371,1,5,1,2016,83,626,13.2,A,5,27,9,0,2015,96.0,695.0,13.8,A,2014,107,624,17.1,A,91371,34.18459,-118.57636000000001,Woodland Hills,CA,California,True,,0.0,1.6,6037.0,Los Angeles,{'06037':100},Los Angeles,06037,False,False,America/Los_Angeles,,,,,,,,,,,,,,,,,,,,
1434,DC,District Of,Washington,AMERICAN UNIVERSITY (THE)                                        ,4400 MASSACHUSETTS AVENUE NW                      ,20016,8020,8,2,2016,50,2717,1.8,A,5,AL      ,3,0,2015,49.0,2682.0,1.8,A,2014,66,2749,2.4,A,20016,38.93815,-77.09147,Washington,DC,District of Columbia,True,,34783.0,2829.2,11001.0,District of Columbia,{'11001':100},District of Columbia,11001,False,False,America/New_York,37.7,44.8,55.2,46.4,3.0,150997.0,64.5,69.5,921671.0,1925.0,88.1,64.7,4.4,79.0,6.7,7.4,0.3,0.0,1.5,5.1
1464,DC,District Of,Washington,WESLEY THEOLOGICAL SEMINARY                                      ,4500 MASSACHUSETTS AVENUE NW                      ,20016,5690,8,2,2016,2,82,2.4,A,5,AL      ,3,0,2015,4.0,102.0,3.9,A,2014,3,96,3.1,A,20016,38.93815,-77.09147,Washington,DC,District of Columbia,True,,34783.0,2829.2,11001.0,District of Columbia,{'11001':100},District of Columbia,11001,False,False,America/New_York,37.7,44.8,55.2,46.4,3.0,150997.0,64.5,69.5,921671.0,1925.0,88.1,64.7,4.4,79.0,6.7,7.4,0.3,0.0,1.5,5.1
1437,DC,District Of,Washington,CATHOLIC UNIVERSITY OF AMERICA (THE)                             ,"620 MICHIGAN AVENUE, NORTHEAST                    ",20064,2,8,2,2016,34,1342,2.5,P,5,AL      ,3,0,2015,50.0,1448.0,3.4,P,2014,33,1390,2.3,P,20064,38.93639,-76.99914,Washington,DC,District of Columbia,True,,2207.0,3769.6,11001.0,District of Columbia,{'11001':100},District of Columbia,11001,False,False,America/New_York,19.9,40.7,59.3,1.8,,,,,,,73.7,36.7,9.0,75.4,12.6,7.2,0.0,0.2,1.3,3.3
41427,DC,District Of,Washington,PONTIFICAL JOHN PAUL II INSTITUTE FOR STUDIES ON MARRIAGE AND FAM,"620 MICHIGAN AVENUE, NE            MCGIVNEY HALL  ",20064,1,8,2,2016,0,29,0.0,B,5,AL      ,3,1,2015,0.0,30.0,0.0,B,2014,0,34,0.0,B,20064,38.93639,-76.99914,Washington,DC,District of Columbia,True,,2207.0,3769.6,11001.0,District of Columbia,{'11001':100},District of Columbia,11001,False,False,America/New_York,19.9,40.7,59.3,1.8,,,,,,,73.7,36.7,9.0,75.4,12.6,7.2,0.0,0.2,1.3,3.3
1441,DC,District Of,Washington,UNIVERSITY OF THE DISTRICT OF COLUMBIA                           ,"4200 CONNECTICUT AVENUE NORTHWEST  BLDG. 39, SUITE",20008,1175,8,1,2016,187,1245,15.0,P,2,AL      ,3,0,2015,223.0,1473.0,15.1,P,2014,204,1251,16.3,P,20008,38.93594,-77.05932,Washington,DC,District of Columbia,True,,29457.0,3496.9,11001.0,District of Columbia,{'11001':100},District of Columbia,11001,False,False,America/New_York,38.3,46.3,53.7,40.0,2.6,117195.0,58.7,39.3,791539.0,1940.0,88.1,79.0,3.0,80.2,7.9,5.5,0.1,0.0,3.6,2.6
1443,DC,District Of,Washington,GALLAUDET UNIVERSITY                                             ,800 FLORIDA AVENUE NORTHEAST                      ,20002,3695,8,2,2016,25,286,8.7,A,5,AL      ,3,0,2015,28.0,315.0,8.8,A,2014,37,321,11.5,A,20002,38.90511,-76.98437,Washington,DC,District of Columbia,True,,64895.0,3852.6,11001.0,District of Columbia,{'11001':100},District of Columbia,11001,False,False,America/New_York,33.2,47.9,52.1,27.6,3.23,84892.0,44.0,39.4,604913.0,1558.0,60.0,74.3,5.8,44.5,47.5,3.1,0.2,0.0,2.0,2.7
1444,DC,District Of,Washington,GEORGE WASHINGTON UNIVERSITY                                     ,"2121 I STREET, NW                                 ",20052,2353,8,2,2016,87,4491,1.9,P,5,AL      ,3,0,2015,79.0,4632.0,1.7,P,2014,89,4910,1.8,P,20052,38.90013,-77.04698,Washington,DC,District of Columbia,True,,751.0,66553.4,11001.0,District of Columbia,{'11001':100},District of Columbia,11001,False,False,America/New_York,20.2,53.7,46.3,0.0,,,,,,,86.7,36.6,8.7,76.4,10.5,10.5,0.0,0.0,0.0,2.5
1445,DC,District Of,Washington,GEORGETOWN UNIVERSITY                                            ,37TH AND O STREETS NORTHWEST                      ,20057,1252,8,2,2016,40,3100,1.2,P,5,AL      ,3,0,2015,35.0,3239.0,1.0,P,2014,28,3290,0.8,P,20057,38.90918,-77.07559,Washington,DC,District of Columbia,True,,3841.0,8831.6,11001.0,District of Columbia,{'11001':100},District of Columbia,11001,False,False,America/New_York,19.8,47.7,52.3,1.1,,,,,,,88.9,38.5,5.4,65.1,9.3,18.1,0.2,0.0,1.6,5.7
1448,DC,District Of,Washington,HOWARD UNIVERSITY                                                ,"2400 SIXTH STREET, NW                             ",20059,1,8,2,2016,218,2722,8.0,P,2,AL      ,3,0,2015,197.0,2506.0,7.8,P,2014,201,2641,7.6,P,20059,38.92386,-77.01612,Washington,DC,District of Columbia,False,20001.0,,,11001.0,District of Columbia,"{""11001"": 100}",District of Columbia,11001,False,False,America/New_York,,,,,,,,,,,,,,,,,,,,
1459,DC,District Of,Washington,STRAYER UNIVERSITY                                               ,1133 15TH STREET NW                SUITE 200      ,20005,2603,8,3,2016,2148,20612,10.4,A,5,AL      ,3,0,2015,2527.0,23813.0,10.6,A,2014,3574,27068,13.2,A,20005,38.90468,-77.0315,Washington,DC,District of Columbia,True,,13222.0,11575.2,11001.0,District of Columbia,{'11001':100},District of Columbia,11001,False,False,America/New_York,33.7,49.8,50.2,31.0,2.72,94611.0,47.2,22.5,487867.0,1885.0,75.7,82.7,2.7,61.8,16.3,8.5,0.9,0.1,8.4,4.0
31043,DC,District Of,Washington,CAREER TECHNICAL INSTITUTE                                       ,"1101 VERMONT AVE, NW                              ",20005,3521,5,3,2016,97,432,22.4,A,5,AL      ,3,0,2015,156.0,544.0,28.6,A,2014,164,548,29.9,A,20005,38.90468,-77.0315,Washington,DC,District of Columbia,True,,13222.0,11575.2,11001.0,District of Columbia,{'11001':100},District of Columbia,11001,False,False,America/New_York,33.7,49.8,50.2,31.0,2.72,94611.0,47.2,22.5,487867.0,1885.0,75.7,82.7,2.7,61.8,16.3,8.5,0.9,0.1,8.4,4.0
32183,DC,District Of,Washington,UNIVERSITY OF THE POTOMAC                                        ,1401 H STREET NORTHWEST                           ,20005,9997,8,3,2016,18,89,20.2,A,5,AL      ,3,0,2015,30.0,179.0,16.7,A,2014,34,178,19.1,A,20005,38.90468,-77.0315,Washington,DC,District of Columbia,True,,13222.0,11575.2,11001.0,District of Columbia,{'11001':100},District of Columbia,11001,False,False,America/New_York,33.7,49.8,50.2,31.0,2.72,94611.0,47.2,22.5,487867.0,1885.0,75.7,82.7,2.7,61.8,16.3,8.5,0.9,0.1,8.4,4.0
1460,DC,District Of,Washington,TRINITY WASHINGTON UNIVERSITY                                    ,"125 MICHIGAN AVENUE, NORTHEAST                    ",20017,1004,8,2,2016,121,874,13.8,A,5,AL      ,3,0,2015,134.0,1082.0,12.3,A,2014,103,1001,10.2,A,20017,38.93845,-76.99316999999999,Washington,DC,District of Columbia,True,,20450.0,3091.4,11001.0,District of Columbia,{'11001':100},District of Columbia,11001,False,False,America/New_York,37.0,46.6,53.4,32.4,3.31,77560.0,40.1,57.8,477475.0,1529.0,49.6,64.4,8.0,27.2,61.4,2.7,1.5,0.0,4.3,2.8
12803,DC,District Of,Washington,DOMINICAN HOUSE OF STUDIES                                       ,487 MICHIGAN AVENUE NORTHEAST                     ,20017,1584,8,2,2016,0,14,0.0,B,5,AL      ,3,1,2015,0.0,19.0,0.0,B,2014,0,18,0.0,B,20017,38.93845,-76.99316999999999,Washington,DC,District of Columbia,True,,20450.0,3091.4,11001.0,District of Columbia,{'11001':100},District of Columbia,11001,False,False,America/New_York,37.0,46.6,53.4,32.4,3.31,77560.0,40.1,57.8,477475.0,1529.0,49.6,64.4,8.0,27.2,61.4,2.7,1.5,0.0,4.3,2.8
34096,DC,District Of,Washington,BENNETT CAREER INSTITUTE                                         ,700 MONROE ST NE                                  ,20017,1754,3,3,2016,53,131,40.4,A,5,AL      ,3,0,2015,43.0,154.0,27.9,A,2014,35,118,29.6,A,20017,38.93845,-76.99316999999999,Washington,DC,District of Columbia,True,,20450.0,3091.4,11001.0,District of Columbia,{'11001':100},District of Columbia,11001,False,False,America/New_York,37.0,46.6,53.4,32.4,3.31,77560.0,40.1,57.8,477475.0,1529.0,49.6,64.4,8.0,27.2,61.4,2.7,1.5,0.0,4.3,2.8
21328,DC,District Of,Washington,NATIONAL CONSERVATORY OF DRAMATIC ARTS                           ,1556 WISCONSIN AVENUE NORTHWEST                   ,20007,2758,4,2,2016,7,51,13.7,B,5,AL      ,3,1,2015,7.0,50.0,14.0,B,2014,4,41,9.7,B,20007,38.91418,-77.07866,Washington,DC,District of Columbia,True,,27562.0,3455.4,11001.0,District of Columbia,{'11001':100},District of Columbia,11001,False,False,America/New_York,34.6,46.4,53.6,38.0,2.86,130920.0,59.8,53.9,977599.0,1897.0,87.2,73.4,4.2,81.7,5.5,6.9,0.2,0.1,1.8,3.8
37503,DC,District Of,Washington,PROSPECT COLLEGE                                                 ,1720 I STREET NW SUITE 200                        ,20006,3749,3,3,2016,78,353,22.0,A,5,AL      ,3,0,2015,64.0,304.0,21.0,A,2014,34,235,14.4,A,20006,38.898590000000006,-77.04134,Washington,DC,District of Columbia,True,,2756.0,3669.1,11001.0,District of Columbia,{'11001':100},District of Columbia,11001,False,False,America/New_York,19.7,43.9,56.1,5.4,2.22,46319.0,18.1,6.6,,1760.0,85.5,40.7,9.7,68.3,11.3,13.9,0.0,0.3,1.3,4.9
41144,DC,District Of,Washington,INSTITUTE OF WORLD POLITICS (THE)                                ,"1521 16TH STREET, NW                              ",20036,1464,8,2,2016,0,51,0.0,A,5,AL      ,3,0,2015,0.0,33.0,0.0,A,2014,1,53,1.8,A,20036,38.90696,-77.04166,Washington,DC,District of Columbia,True,,5798.0,6303.5,11001.0,District of Columbia,{'11001':100},District of Columbia,11001,False,False,America/New_York,33.4,47.2,52.8,32.2,2.2,88553.0,44.0,35.7,384617.0,1922.0,90.7,81.5,1.9,83.6,3.8,8.3,0.0,0.6,0.7,3.1
39413,FL,Florida,Ave Maria,AVE MARIA UNIVERSITY                                             ,5050 AVE MARIA BOULEVARD                          ,34142,9505,8,2,2016,13,301,4.3,A,5,14,4,0,2015,27.0,312.0,8.6,A,2014,28,277,10.1,A,34142,26.33816,-81.33596,Immokalee,FL,Florida,True,,30955.0,17.9,12021.0,Collier,"{'12021':95,'12051':5}",Collier|Hendry,12021|12051,False,False,America/New_York,27.8,55.2,44.8,34.9,4.47,32128.0,11.5,40.7,143537.0,773.0,8.3,67.5,11.0,71.3,19.3,0.5,1.6,0.0,6.6,0.7
1531,FL,Florida,Deland,STETSON UNIVERSITY                                               ,421 NORTH WOODLAND BOULEVARD                      ,32723,3761,8,2,2016,26,971,2.6,P,5,7,4,0,2015,40.0,993.0,4.0,P,2014,43,1003,4.2,P,32723,29.009959999999996,-81.30877,Deland,FL,Florida,False,32724.0,,,12127.0,Volusia,"{""12127"": 100}",Volusia,12127,False,False,America/New_York,,,,,,,,,,,,,,,,,,,,
7893,FL,Florida,Saint Augustine,FLAGLER COLLEGE                                                  ,74 KING STREET                                    ,32085,4342,8,2,2016,18,901,1.9,A,5,7,4,0,2015,37.0,928.0,3.9,A,2014,67,971,6.9,A,32085,29.88685,-81.34371999999999,Saint Augustine,FL,Florida,False,32084.0,,,12109.0,St. Johns,"{""12109"": 100}",St. Johns,12109,False,False,America/New_York,,,,,,,,,,,,,,,,,,,,
1526,FL,Florida,Saint Leo,SAINT LEO UNIVERSITY                                             ,33701 STATE ROAD 52                               ,33574,6665,8,2,2016,434,5943,7.3,A,5,5,4,0,2015,475.0,5955.0,7.9,A,2014,479,5588,8.5,A,33574,28.33183,-82.27405,Saint Leo,FL,Florida,False,33576.0,,,12101.0,Pasco,"{""12101"": 100}",Pasco,12101,False,False,America/New_York,,,,,,,,,,,,,,,,,,,,
1487,FL,Florida,Saint Petersburg,ECKERD COLLEGE                                                   ,4200 54TH AVENUE SOUTH                            ,33711,4744,6,2,2016,16,482,3.3,A,5,10,4,0,2015,27.0,540.0,5.0,A,2014,31,522,5.9,A,33711,27.7389,-82.68844,Saint Petersburg,FL,Florida,True,,20366.0,1552.0,12103.0,Pinellas,{'12103':100},Pinellas,12103,False,False,America/New_York,37.9,46.4,53.6,30.6,3.38,39720.0,15.0,57.3,152174.0,1140.0,24.1,53.8,8.6,38.0,56.2,1.3,0.1,0.0,1.4,3.0
10161,FL,Florida,Saint Petersburg,LORAINES ACADEMY & SPA                                           ,1012 58TH STREET NORTH                            ,33710,6391,3,3,2016,2,119,1.6,A,5,10,4,0,2015,2.0,131.0,1.5,A,2014,4,115,3.4,A,33710,27.79012,-82.73040999999999,Saint Petersburg,FL,Florida,True,,33883.0,1594.8,12103.0,Pinellas,{'12103':100},Pinellas,12103,False,False,America/New_York,44.3,49.7,50.3,44.2,3.2,57815.0,21.9,75.6,177553.0,985.0,30.3,66.0,4.5,86.6,4.5,4.1,0.2,0.1,0.6,3.9
22796,FL,Florida,St.Petersburg,CORTIVA INSTITUTE                                                ,2370 34TH STREET NORTH                            ,33713,3614,2,3,2016,57,342,16.6,A,5,10,4,0,2015,41.0,215.0,19.0,A,2014,26,158,16.4,A,33713,27.788790000000002,-82.67754000000001,Saint Petersburg,FL,Florida,True,,32350.0,1756.3,12103.0,Pinellas,{'12103':100},Pinellas,12103,False,False,America/New_York,41.3,50.3,49.7,38.2,3.29,54067.0,20.4,64.7,149717.0,1102.0,25.4,66.3,4.8,75.4,8.8,10.0,0.3,0.1,2.5,3.0
1578,GA,Georgia,Lagrange,LAGRANGE COLLEGE                                                 ,601 BROAD STREET                                  ,30240,2999,8,2,2016,36,359,10.0,A,5,8,4,0,2015,41.0,397.0,10.3,A,2014,31,370,8.3,A,30240,33.03625,-85.12366,Lagrange,GA,Georgia,True,,29114.0,83.0,13285.0,Troup,{'13285':100},Troup,13285,False,False,America/New_York,36.0,46.1,53.9,43.8,3.35,44422.0,18.6,59.3,151881.0,791.0,26.1,62.2,7.3,62.6,31.3,1.8,0.3,0.0,1.5,2.5
1623,ID,Idaho,Coeur D'Alene,NORTH IDAHO COLLEGE                                              ,1000 WEST GARDEN AVENUE                           ,83814,2199,5,1,2016,242,1421,17.0,A,5,1,10,0,2015,277.0,1664.0,16.6,A,2014,433,1910,22.6,A,83814,47.63961,-116.75208,Coeur D Alene,ID,Idaho,True,,26607.0,45.5,16055.0,Kootenai,{'16055':100},Kootenai,16055,False,False,America/Los_Angeles,38.7,49.7,50.3,46.7,2.87,50498.0,20.6,54.4,274762.0,873.0,31.1,62.0,6.4,94.6,0.3,0.8,1.1,0.1,1.2,1.9
1737,IL,Illinois,Dekalb,NORTHERN ILLINOIS UNIVERSITY                                     ,ALTGELD HALL - ROOM 300A                          ,60115,2854,8,1,2016,399,5055,7.8,P,5,14,5,0,2015,439.0,5669.0,7.7,P,2014,466,5802,8.0,P,60115,41.90082,-88.7548,Dekalb,IL,Illinois,True,,45325.0,221.3,17037.0,DeKalb,{'17037':100},DeKalb,17037,False,False,America/Chicago,25.0,48.8,51.2,30.6,3.2,44747.0,20.0,39.7,157237.0,874.0,37.6,65.6,10.7,73.3,15.1,4.4,0.1,0.0,4.2,2.8
1835,IN,Indiana,Saint Mary Of The Wo,SAINT MARY OF THE WOODS COLLEGE                                  ,1 SAINT MARY OF THE WOODS COLLEGE                 ,47876,67,8,2,2016,18,345,5.2,A,5,8,5,0,2015,19.0,363.0,5.2,A,2014,21,360,5.8,A,47876,39.51321,-87.45963,Saint Mary Of The Woods,IN,Indiana,True,,354.0,324.1,18167.0,Vigo,{'18167':100},Vigo,18167,False,False,America/Indiana/Indianapolis,51.3,0.0,100.0,2.8,,,,,,,29.7,32.2,7.9,92.7,4.0,2.3,0.0,0.0,1.1,0.0
7276,IN,Indiana,St Meinrad,SAINT MEINRAD SCHOOL OF THEOLOGY                                 ,200 HILL DRIVE                                    ,47577,1002,8,2,2016,0,20,0.0,B,5,9,5,1,2015,0.0,23.0,0.0,B,2014,1,20,5.0,B,47577,38.152190000000004,-86.80674,Saint Meinrad,IN,Indiana,True,,1297.0,17.5,18147.0,Spencer,"{'18123':11.46,'18147':88.54}",Spencer|Perry,18147|18123,False,False,America/Chicago,43.9,58.1,41.9,63.4,3.02,67250.0,26.9,92.4,171294.0,,15.1,70.7,4.4,98.5,0.0,1.5,0.0,0.0,0.0,0.0
22890,IA,Iowa,Mt. Pleasant,AMERICAN HAIR ACADEMY                                            ,304 SOUTH IRIS STREET                             ,52641,1856,4,3,2016,2,52,3.8,B,5,2,7,1,2015,4.0,66.0,6.0,B,2014,5,76,6.5,B,52641,40.98968,-91.58718,Mount Pleasant,IA,Iowa,True,,12254.0,22.5,19087.0,Henry,"{'19087':99.17,'19101':0.36,'19183':0.47}",Henry|Washington|Jefferson,19087|19183|19101,False,False,America/Chicago,38.9,51.6,48.4,50.8,2.81,53922.0,20.6,67.6,121250.0,692.0,21.2,60.3,2.8,89.0,3.5,3.9,0.4,0.0,0.8,2.4
1908,KS,Kansas,Mcpherson,CENTRAL CHRISTIAN COLLEGE OF KANSAS                              ,1200 SOUTH MAIN STREET                            ,67460,5799,6,2,2016,144,527,27.3,A,5,1,7,0,2015,104.0,375.0,27.7,A,2014,63,287,21.9,A,67460,38.38362,-97.69809000000001,Mcpherson,KS,Kansas,True,,14973.0,25.5,20113.0,McPherson,{'20113':100},McPherson,20113,False,False,America/Chicago,38.9,51.5,48.5,57.7,2.77,55764.0,23.0,67.0,146991.0,766.0,30.4,68.8,2.4,94.4,1.2,0.9,0.3,0.0,0.4,2.8
1933,KS,Kansas,Mcpherson,MCPHERSON COLLEGE                                                ,1600 EAST EUCLID STREET                           ,67460,3899,8,2,2016,27,204,13.2,A,5,1,7,0,2015,31.0,276.0,11.2,A,2014,29,251,11.5,A,67460,38.38362,-97.69809000000001,Mcpherson,KS,Kansas,True,,14973.0,25.5,20113.0,McPherson,{'20113':100},McPherson,20113,False,False,America/Chicago,38.9,51.5,48.5,57.7,2.77,55764.0,23.0,67.0,146991.0,766.0,30.4,68.8,2.4,94.4,1.2,0.9,0.3,0.0,0.4,2.8
10014,MD,Maryland,Mchenry,GARRETT COLLEGE                                                  ,687 MOSSER ROAD                                   ,21541,1265,5,1,2016,31,191,16.2,A,5,6,3,0,2015,55.0,223.0,24.6,A,2014,57,246,23.1,A,21541,39.55454,-79.36816999999999,Mc Henry,MD,Maryland,True,,1354.0,22.7,24023.0,Garrett,{'24023':100},Garrett,24023,False,False,America/New_York,43.1,50.7,49.3,52.9,2.55,45714.0,15.1,71.2,225073.0,846.0,36.5,56.9,0.0,87.1,5.9,1.0,0.9,0.0,1.3,3.8
2128,MA,Massachusetts,Chestnut Hill,BOSTON COLLEGE                                                   ,140 COMMONWEALTH AVENUE                           ,2467,3800,8,2,2016,31,2003,1.5,P,5,4,1,0,2015,27.0,2229.0,1.2,P,2014,21,2291,0.9,P,2467,42.31641,-71.16118,Chestnut Hill,MA,Massachusetts,True,,21864.0,1782.0,25021.0,Norfolk,"{'25017':37.9,'25021':38.86,'25025':23.24}",Norfolk|Middlesex|Suffolk,25021|25017|25025,False,False,America/New_York,23.9,45.6,54.4,37.7,3.0,126630.0,63.3,68.3,844504.0,2187.0,78.6,55.3,4.3,72.3,5.0,15.7,0.0,0.0,1.4,5.6
2201,MA,Massachusetts,Chestnut Hill,PINE MANOR COLLEGE                                               ,400 HEATH STREET                                  ,2467,2332,8,2,2016,29,123,23.5,A,5,4,1,0,2015,18.0,108.0,16.6,A,2014,23,128,17.9,A,2467,42.31641,-71.16118,Chestnut Hill,MA,Massachusetts,True,,21864.0,1782.0,25021.0,Norfolk,"{'25017':37.9,'25021':38.86,'25025':23.24}",Norfolk|Middlesex|Suffolk,25021|25017|25025,False,False,America/New_York,23.9,45.6,54.4,37.7,3.0,126630.0,63.3,68.3,844504.0,2187.0,78.6,55.3,4.3,72.3,5.0,15.7,0.0,0.0,1.4,5.6
2157,MA,Massachusetts,Newton Centre,HEBREW COLLEGE                                                   ,160 HERRICK ROAD                                  ,2459,2237,8,2,2016,2,59,3.3,B,5,4,1,1,2015,1.0,30.0,3.3,A,2014,1,42,2.3,B,2459,42.31493,-71.19174,Newton Center,MA,Massachusetts,True,,19463.0,1473.5,25017.0,Middlesex,{'25017':100},Middlesex,25017,False,False,America/New_York,43.2,46.7,53.3,59.2,3.03,177005.0,68.5,80.7,1048354.0,1903.0,86.8,63.7,1.9,77.2,2.7,17.2,0.1,0.0,0.6,2.1
2168,MA,Massachusetts,West Barnstable,CAPE COD COMMUNITY COLLEGE                                       ,2240 IYANNOUGH ROAD                               ,2668,1599,5,1,2016,45,299,15.0,A,5,10,1,0,2015,47.0,317.0,14.8,A,2014,57,391,14.5,A,2668,41.71178,-70.35675,West Barnstable,MA,Massachusetts,True,,2723.0,83.3,25001.0,Barnstable,{'25001':100},Barnstable,25001,False,False,America/New_York,54.5,41.8,58.2,48.8,2.85,100528.0,50.9,80.2,452821.0,1419.0,46.2,62.1,3.1,94.8,1.9,0.0,0.0,0.0,0.0,3.3
2243,MI,Michigan,Mt Pleasant,CENTRAL MICHIGAN UNIVERSITY                                      ,106 WARRINER HALL                                 ,48859,1,8,1,2016,313,6380,4.9,A,5,2,5,0,2015,340.0,6546.0,5.1,A,2014,330,6734,4.9,A,48859,43.5976,-84.77801,Mount Pleasant,MI,Michigan,False,48858.0,,,26073.0,Isabella,"{""26073"": 100}",Isabella,26073,False,False,America/Detroit,,,,,,,,,,,,,,,,,,,,
41211,MI,Michigan,Royal Oaks,ELEVATE SALON INSTITUTE                                          ,4050 CROOKS ROAD                                  ,48067,3591,3,3,2016,20,103,19.4,A,5,12,5,0,2015,14.0,115.0,12.1,A,2014,17,162,10.4,A,48067,42.49046,-83.13793000000001,Royal Oak,MI,Michigan,True,,24901.0,2057.2,26125.0,Oakland,{'26125':100},Oakland,26125,False,False,America/Detroit,34.6,51.8,48.2,42.4,2.87,82025.0,39.9,66.8,219278.0,1138.0,59.7,76.8,3.4,90.7,3.5,2.7,0.0,0.0,0.3,2.7
2293,MI,Michigan,Sault Ste Marie,LAKE SUPERIOR STATE UNIVERSITY                                   ,650 WEST EASTERDAY AVENUE                         ,49783,1691,8,1,2016,34,652,5.2,A,5,1,5,0,2015,42.0,685.0,6.1,A,2014,47,684,6.8,A,49783,46.41473,-84.28349,Sault Sainte Marie,MI,Michigan,True,,19299.0,50.3,26033.0,Chippewa,{'26033':100},Chippewa,26033,False,False,America/Detroit,36.9,52.3,47.7,40.7,3.0,42209.0,13.8,61.7,109381.0,692.0,26.8,60.5,8.0,74.0,3.0,1.3,14.2,0.3,0.0,7.3
30752,MI,Michigan,St Joseph,TWIN CITY BEAUTY COLLEGE                                         ,2600 LINCOLN AVENUE                               ,49085,3305,3,3,2016,12,119,10.0,A,5,6,5,0,2015,9.0,146.0,6.1,A,2014,8,150,5.3,A,49085,42.05012,-86.46029,Saint Joseph,MI,Michigan,True,,23716.0,390.5,26021.0,Berrien,{'26021':100},Berrien,26021,False,False,America/Detroit,44.7,50.5,49.5,60.5,2.84,71205.0,34.2,75.3,195990.0,794.0,48.1,62.8,2.8,89.2,2.2,5.2,0.6,0.0,0.7,2.1
2251,MI,Michigan,University Center,DELTA COLLEGE                                                    ,1961 DELTA ROAD                                   ,48710,1,5,1,2016,239,1502,15.9,A,5,5,5,0,2015,321.0,1861.0,17.2,A,2014,385,1905,20.2,A,48710,43.556509999999996,-83.98782,University Center,MI,Michigan,True,,0.0,0.0,26017.0,Bay,{'26017':0},Bay,26017,False,False,America/Detroit,,,,,,,,,,,,,,,,,,,,
2314,MI,Michigan,University Center,SAGINAW VALLEY STATE UNIVERSITY                                  ,7400 BAY ROAD                                     ,48710,1,8,1,2016,215,2651,8.1,A,5,5,5,0,2015,228.0,2804.0,8.1,A,2014,206,2746,7.5,A,48710,43.556509999999996,-83.98782,University Center,MI,Michigan,True,,0.0,0.0,26017.0,Bay,{'26017':0},Bay,26017,False,False,America/Detroit,,,,,,,,,,,,,,,,,,,,
2377,MN,Minnesota,Saint Cloud,ST. CLOUD STATE UNIVERSITY                                       ,720 FOURTH AVENUE SOUTH                           ,56301,4498,8,1,2016,164,3504,4.6,A,5,6,5,0,2015,204.0,3846.0,5.3,A,2014,181,3844,4.7,A,56301,45.48809,-94.24224,Saint Cloud,MN,Minnesota,True,,35051.0,168.8,27145.0,Stearns,{'27145':100},Stearns,27145,False,False,America/Chicago,25.4,50.8,49.2,37.8,3.14,51722.0,20.8,52.7,183749.0,839.0,32.4,75.0,8.3,77.8,14.1,3.6,0.6,0.0,0.8,3.1
8694,MN,Minnesota,Saint Cloud,RASMUSSEN COLLEGE                                                ,226 PARK AVENUE SOUTH                             ,56301,3713,8,3,2016,782,10677,7.3,P,5,6,5,0,2015,804.0,11188.0,7.1,P,2014,946,11604,8.1,P,56301,45.48809,-94.24224,Saint Cloud,MN,Minnesota,True,,35051.0,168.8,27145.0,Stearns,{'27145':100},Stearns,27145,False,False,America/Chicago,25.4,50.8,49.2,37.8,3.14,51722.0,20.8,52.7,183749.0,839.0,32.4,75.0,8.3,77.8,14.1,3.6,0.6,0.0,0.8,3.1
9831,MN,Minnesota,Saint Cloud,MODEL COLLEGE OF HAIR DESIGN                                     ,"201 8TH AVENUE, SOUTH                             ",56301,4280,3,3,2016,12,79,15.1,A,5,6,5,0,2015,11.0,84.0,13.0,A,2014,15,90,16.6,A,56301,45.48809,-94.24224,Saint Cloud,MN,Minnesota,True,,35051.0,168.8,27145.0,Stearns,{'27145':100},Stearns,27145,False,False,America/Chicago,25.4,50.8,49.2,37.8,3.14,51722.0,20.8,52.7,183749.0,839.0,32.4,75.0,8.3,77.8,14.1,3.6,0.6,0.0,0.8,3.1
2342,MN,Minnesota,Saint Paul,ST. CATHERINE UNIVERSITY                                         ,2004 RANDOLPH AVENUE                              ,55105,1789,8,2,2016,48,1378,3.4,A,5,4,5,0,2015,46.0,1456.0,3.1,A,2014,72,1559,4.6,A,55105,44.9346,-93.16816999999999,Saint Paul,MN,Minnesota,True,,26729.0,3041.5,27123.0,Ramsey,{'27123':100},Ramsey,27123,False,False,America/Chicago,32.8,47.8,52.2,46.0,3.0,88341.0,44.5,67.4,335088.0,969.0,75.3,74.8,3.7,91.5,2.1,3.3,0.1,0.0,0.4,2.5
2358,MN,Minnesota,Saint Paul,MACALESTER COLLEGE                                               ,1600 GRAND AVENUE                                 ,55105,1899,6,2,2016,3,349,0.8,A,5,4,5,0,2015,4.0,381.0,1.0,A,2014,3,373,0.8,A,55105,44.9346,-93.16816999999999,Saint Paul,MN,Minnesota,True,,26729.0,3041.5,27123.0,Ramsey,{'27123':100},Ramsey,27123,False,False,America/Chicago,32.8,47.8,52.2,46.0,3.0,88341.0,44.5,67.4,335088.0,969.0,75.3,74.8,3.7,91.5,2.1,3.3,0.1,0.0,0.4,2.5
2345,MN,Minnesota,St Paul,UNIVERSITY OF SAINT THOMAS                                       ,2115 SUMMIT AVENUE                                ,55105,1096,8,2,2016,25,2119,1.1,P,5,4,5,0,2015,45.0,2276.0,1.9,P,2014,39,2177,1.7,P,55105,44.9346,-93.16816999999999,Saint Paul,MN,Minnesota,True,,26729.0,3041.5,27123.0,Ramsey,{'27123':100},Ramsey,27123,False,False,America/Chicago,32.8,47.8,52.2,46.0,3.0,88341.0,44.5,67.4,335088.0,969.0,75.3,74.8,3.7,91.5,2.1,3.3,0.1,0.0,0.4,2.5
2391,MN,Minnesota,St Paul,MITCHELL HAMLINE SCHOOL OF LAW                                   ,875 SUMMIT AVENUE                                 ,55105,3076,7,2,2016,12,250,4.8,A,5,4,5,0,2015,4.0,296.0,1.3,A,2014,8,306,2.6,A,55105,44.9346,-93.16816999999999,Saint Paul,MN,Minnesota,True,,26729.0,3041.5,27123.0,Ramsey,{'27123':100},Ramsey,27123,False,False,America/Chicago,32.8,47.8,52.2,46.0,3.0,88341.0,44.5,67.4,335088.0,969.0,75.3,74.8,3.7,91.5,2.1,3.3,0.1,0.0,0.4,2.5
2347,MN,Minnesota,Saint Paul,CONCORDIA UNIVERSITY - SAINT PAUL                                ,1282 CONCORDIA AVENUE                             ,55104,5494,8,2,2016,85,1440,5.9,A,5,4,5,0,2015,68.0,1292.0,5.2,A,2014,52,1128,4.6,A,55104,44.95447,-93.16221,Saint Paul,MN,Minnesota,True,,45535.0,2756.8,27123.0,Ramsey,{'27123':100},Ramsey,27123,False,False,America/Chicago,30.4,48.6,51.4,34.9,3.34,60474.0,26.5,50.5,212378.0,888.0,47.5,75.0,5.2,63.1,19.3,8.6,1.5,0.1,2.2,5.4
2354,MN,Minnesota,Saint Paul,HAMLINE UNIVERSITY                                               ,1536 HEWITT AVENUE                                ,55104,1284,8,2,2016,44,1277,3.4,P,5,4,5,0,2015,53.0,1389.0,3.8,P,2014,47,1375,3.4,P,55104,44.95447,-93.16221,Saint Paul,MN,Minnesota,True,,45535.0,2756.8,27123.0,Ramsey,{'27123':100},Ramsey,27123,False,False,America/Chicago,30.4,48.6,51.4,34.9,3.34,60474.0,26.5,50.5,212378.0,888.0,47.5,75.0,5.2,63.1,19.3,8.6,1.5,0.1,2.2,5.4
2371,MN,Minnesota,Saint Paul,UNIVERSITY OF NORTHWESTERN- ST PAUL                              ,3003 SNELLING AVENUE NORTH                        ,55113,1598,8,2,2016,19,719,2.6,A,5,4,5,0,2015,13.0,702.0,1.8,A,2014,25,765,3.2,A,55113,45.013000000000005,-93.15553,Saint Paul,MN,Minnesota,True,,41608.0,1009.1,27123.0,Ramsey,{'27123':100},Ramsey,27123,False,False,America/Chicago,39.6,47.0,53.0,47.5,3.01,66413.0,30.5,64.7,237108.0,999.0,51.5,65.8,3.7,77.4,7.9,8.8,0.5,0.0,0.9,4.3
9058,MN,Minnesota,Saint Paul,BETHEL UNIVERSITY                                                ,3900 BETHEL DRIVE                                 ,55112,6999,8,2,2016,34,1386,2.4,P,5,4,5,0,2015,36.0,1402.0,2.5,P,2014,30,1509,1.9,P,55112,45.07658,-93.18893,Saint Paul,MN,Minnesota,True,,45895.0,878.3,27123.0,Ramsey,{'27123':100},Ramsey,27123,False,False,America/Chicago,37.2,47.6,52.4,49.9,3.11,70842.0,33.3,67.7,231874.0,990.0,45.5,68.5,4.7,79.6,7.4,6.5,0.3,0.1,2.7,3.5
10374,MN,Minnesota,Saint Paul,METROPOLITAN STATE UNIVERSITY                                    ,700 EAST 7TH STREET                               ,55106,5000,8,1,2016,162,2661,6.0,A,5,4,5,0,2015,159.0,2673.0,5.9,A,2014,149,2716,5.4,A,55106,44.96348,-93.04827,Saint Paul,MN,Minnesota,True,,58160.0,2352.7,27123.0,Ramsey,{'27123':100},Ramsey,27123,False,False,America/Chicago,29.5,50.7,49.3,37.5,4.01,50193.0,16.4,54.5,150202.0,924.0,19.1,68.3,6.7,40.5,14.5,36.0,0.9,0.0,2.7,5.5
2353,MN,Minnesota,Saint Peter,GUSTAVUS ADOLPHUS COLLEGE                                        ,800 WEST COLLEGE AVENUE                           ,56082,1498,6,2,2016,9,609,1.4,A,5,1,5,0,2015,6.0,540.0,1.1,A,2014,7,571,1.2,A,56082,44.35226,-94.03245,Saint Peter,MN,Minnesota,True,,14502.0,42.3,27103.0,Nicollet,"{'27079':5.63,'27103':94.37}",Nicollet|Le Sueur,27103|27079,False,False,America/Chicago,32.4,50.8,49.2,43.2,2.93,61860.0,22.7,70.4,174825.0,895.0,31.7,70.3,3.0,91.4,3.2,2.8,0.1,0.0,0.4,2.2
2383,MN,Minnesota,St Bonifacius,CROWN COLLEGE                                                    ,8700 COLLEGE VIEW DRIVE                           ,55375,9001,8,2,2016,29,394,7.3,A,5,3,5,0,2015,46.0,491.0,9.3,A,2014,44,440,10.0,A,55375,44.89698,-93.74285,Saint Bonifacius,MN,Minnesota,True,,4968.0,333.0,27053.0,Hennepin,"{'27019':13.15,'27053':86.85}",Hennepin|Carver,27053|27019,False,False,America/Chicago,34.0,46.2,53.8,57.3,3.36,101818.0,51.5,87.7,297498.0,823.0,44.0,77.8,3.6,91.9,1.7,5.0,0.1,0.0,0.2,1.1
5534,MN,Minnesota,St Cloud,ST. CLOUD TECHNICAL AND COMMUNITY COLLEGE                        ,1540 NORTHWAY DRIVE                               ,56303,1240,5,1,2016,173,1590,10.8,A,5,6,5,0,2015,209.0,1698.0,12.3,A,2014,260,1845,14.0,A,56303,45.5744,-94.21155,Saint Cloud,MN,Minnesota,True,,24674.0,898.7,27145.0,Stearns,{'27145':100},Stearns,27145,False,False,America/Chicago,38.8,50.9,49.1,44.5,2.94,49538.0,18.6,63.3,145189.0,726.0,31.0,68.2,5.3,85.8,7.9,2.6,0.5,0.0,0.9,2.3
2341,MN,Minnesota,St Joseph,COLLEGE OF SAINT BENEDICT                                        ,37 SOUTH COLLEGE AVENUE                           ,56374,2099,6,2,2016,5,464,1.0,A,5,7,5,0,2015,6.0,449.0,1.3,A,2014,2,453,0.4,A,56374,45.607079999999996,-94.33583,Saint Joseph,MN,Minnesota,True,,10622.0,56.3,27145.0,Stearns,{'27145':100},Stearns,27145,False,False,America/Chicago,29.4,43.5,56.5,45.6,3.05,67994.0,28.0,77.2,181855.0,717.0,36.9,74.7,3.7,95.3,1.5,1.4,0.4,0.0,0.2,1.2
2357,MN,Minnesota,St Paul,LUTHER SEMINARY                                                  ,2481 COMO AVENUE                                  ,55108,1496,8,2,2016,1,83,1.2,A,5,4,5,0,2015,1.0,127.0,0.7,A,2014,3,95,3.1,A,55108,44.98095,-93.17541,Saint Paul,MN,Minnesota,True,,15929.0,1441.2,27123.0,Ramsey,{'27123':100},Ramsey,27123,False,False,America/Chicago,32.7,47.4,52.6,44.3,2.88,69918.0,32.7,48.8,265561.0,993.0,69.5,70.9,4.7,75.6,8.3,11.6,0.5,0.0,0.5,3.6
5533,MN,Minnesota,St Paul,SAINT PAUL COLLEGE - A COMMUNITY & TECHNICAL COLLEGE             ,235 MARSHALL AVENUE                               ,55102,1800,5,1,2016,433,2152,20.1,A,5,4,5,0,2015,520.0,2486.0,20.9,A,2014,671,2720,24.6,A,55102,44.93189,-93.1216,Saint Paul,MN,Minnesota,True,,18346.0,2159.9,27123.0,Ramsey,{'27123':100},Ramsey,27123,False,False,America/Chicago,38.1,47.9,52.1,32.4,2.83,56084.0,22.9,42.4,199490.0,935.0,49.4,69.8,3.9,77.6,11.4,2.0,0.9,0.0,3.6,4.5
2396,MS,Mississippi,Alcorn State,ALCORN STATE UNIVERSITY                                          ,1000 ASU DRIVE                                    ,39096,7500,8,1,2016,282,1312,21.4,A,2,2,4,0,2015,291.0,1485.0,19.5,A,2014,261,1599,16.3,A,39096,31.82548,-91.11572,Lorman,MS,Mississippi,True,,1887.0,4.6,28021.0,Claiborne,"{'28021':56.03,'28063':43.97}",Claiborne|Jefferson,28021|28063,False,False,America/Chicago,21.2,43.0,57.0,19.5,3.57,18224.0,8.0,52.3,51829.0,586.0,32.3,32.7,6.4,5.9,92.9,0.2,0.6,0.0,0.4,0.0
2413,MS,Mississippi,Meridan,MERIDIAN COMMUNITY COLLEGE                                       ,910 HIGHWAY 19 NORTH                              ,39307,5890,5,1,2016,65,393,16.5,A,5,3,4,0,2015,59.0,480.0,12.2,A,2014,118,621,19.0,A,39307,32.33768,-88.79619,Meridian,MS,Mississippi,True,,17145.0,75.3,28075.0,Lauderdale,{'28075':100},Lauderdale,28075,False,False,America/Chicago,35.3,52.6,47.4,33.8,3.13,29966.0,7.8,60.6,72153.0,658.0,11.5,50.2,9.5,31.7,66.5,0.4,0.1,0.0,0.8,0.4
41748,MO,Missouri,Saint Ann,AMERICAN TRADE SCHOOL                                            ,3925 INDUSTRIAL DRIVE                             ,63074,1807,5,3,2016,5,64,7.8,A,5,1,7,0,2015,6.0,67.0,8.9,A,2014,10,81,12.3,A,63074,38.7265,-90.3887,Saint Ann,MO,Missouri,True,,15234.0,1523.8,29189.0,St. Louis,{'29189':100},St. Louis,29189,False,False,America/Chicago,34.1,48.0,52.0,34.2,3.05,45663.0,9.6,48.9,87502.0,837.0,18.7,70.1,7.8,57.7,34.7,2.8,0.1,0.0,1.0,3.6
2480,MO,Missouri,Saint Charles,LINDENWOOD UNIVERSITY                                            ,209 SOUTH KINGSHIGHWAY                            ,63301,1695,8,2,2016,61,3641,1.6,A,5,2,7,0,2015,76.0,3571.0,2.1,A,2014,90,3775,2.3,A,63301,38.86333,-90.46736,Saint Charles,MO,Missouri,True,,50675.0,211.9,29183.0,St. Charles,{'29183':100},St. Charles,29183,False,False,America/Chicago,35.5,48.2,51.8,41.2,2.9,59406.0,24.3,67.2,169524.0,868.0,30.6,65.3,3.5,89.7,4.8,1.5,0.1,0.0,0.8,3.0
2490,MO,Missouri,Saint Joseph,MISSOURI WESTERN STATE UNIVERSITY                                ,4525 DOWNS DRIVE                                  ,64507,2294,8,1,2016,192,1437,13.3,A,5,6,7,0,2015,226.0,1560.0,14.4,A,2014,228,1613,14.1,A,64507,39.728629999999995,-94.75994,Saint Joseph,MO,Missouri,True,,13604.0,93.6,29021.0,Buchanan,{'29021':100},Buchanan,29021,False,False,America/Chicago,37.6,51.2,48.8,50.6,3.22,53927.0,18.4,65.9,104744.0,765.0,19.9,70.1,3.2,88.9,5.2,0.7,0.2,0.1,0.7,4.3
8269,MO,Missouri,Saint Joseph,HILLYARD TECHNICAL CENTER                                        ,3434 FARAON STREET                                ,64506,5102,4,1,2016,3,67,4.4,A,5,6,7,0,2015,5.0,87.0,5.7,A,2014,7,60,11.6,A,64506,39.78974,-94.80173,Saint Joseph,MO,Missouri,True,,24304.0,843.2,29021.0,Buchanan,"{'29003':3.47,'29021':96.53}",Buchanan|Andrew,29021|29003,False,False,America/Chicago,37.7,50.9,49.1,44.2,3.09,60970.0,25.0,63.0,168028.0,781.0,33.1,56.9,4.4,86.2,7.4,2.2,0.6,0.1,0.7,2.8
41187,MO,Missouri,Saint Joseph,AMERICAN BUSINESS & TECHNOLOGY UNIVERSITY                        ,1018 WEST SAINT MAARTENS DRIVE                    ,64506,2961,6,3,2016,7,64,10.9,A,5,6,7,0,2015,23.0,151.0,15.2,A,2014,34,187,18.1,A,64506,39.78974,-94.80173,Saint Joseph,MO,Missouri,True,,24304.0,843.2,29021.0,Buchanan,"{'29003':3.47,'29021':96.53}",Buchanan|Andrew,29021|29003,False,False,America/Chicago,37.7,50.9,49.1,44.2,3.09,60970.0,25.0,63.0,168028.0,781.0,33.1,56.9,4.4,86.2,7.4,2.2,0.6,0.1,0.7,2.8
1632,MO,Missouri,Saint Louis,AQUINAS INSTITUTE OF THEOLOGY                                    ,23 SOUTH SPRING AVENUE                            ,63108,3323,8,2,2016,2,25,8.0,B,5,1,7,1,2015,3.0,27.0,11.1,B,2014,3,22,13.6,B,63108,38.64481,-90.25350999999999,Saint Louis,MO,Missouri,True,,20704.0,3717.3,29510.0,St. Louis,{'29510':100},St. Louis,29510,False,False,America/Chicago,32.6,50.4,49.6,25.7,2.72,46009.0,24.5,29.0,350343.0,929.0,60.0,60.3,7.4,54.2,33.9,9.3,0.2,0.0,0.8,1.6
2457,MO,Missouri,Saint Louis,CONCORDIA SEMINARY                                               ,801 SEMINARY PLACE                                ,63105,3199,8,2,2016,0,83,0.0,A,5,3,7,0,2015,1.0,60.0,1.6,A,2014,0,75,0.0,A,63105,38.64436,-90.32831,Saint Louis,MO,Missouri,True,,18333.0,2554.5,29189.0,St. Louis,"{'29189':94.03,'29510':5.97}",St. Louis|St. Louis,29189|29510,False,False,America/Chicago,32.0,50.0,50.0,41.9,2.78,102180.0,50.5,59.9,595320.0,1194.0,78.5,53.2,2.9,77.7,6.5,13.1,0.1,0.0,0.1,2.4
2464,MO,Missouri,Saint Louis,FONTBONNE UNIVERSITY                                             ,6800 WYDOWN BOULEVARD                             ,63105,3098,8,2,2016,27,619,4.3,A,5,3,7,0,2015,35.0,635.0,5.5,A,2014,49,797,6.1,A,63105,38.64436,-90.32831,Saint Louis,MO,Missouri,True,,18333.0,2554.5,29189.0,St. Louis,"{'29189':94.03,'29510':5.97}",St. Louis|St. Louis,29189|29510,False,False,America/Chicago,32.0,50.0,50.0,41.9,2.78,102180.0,50.5,59.9,595320.0,1194.0,78.5,53.2,2.9,77.7,6.5,13.1,0.1,0.0,0.1,2.4
2466,MO,Missouri,Saint Louis,HARRIS - STOWE STATE UNIVERSITY                                  ,3026 LACLEDE AVENUE                               ,63103,2199,6,1,2016,127,584,21.7,A,2,1,7,0,2015,133.0,616.0,21.5,A,2014,157,675,23.2,A,63103,38.629740000000005,-90.21678,Saint Louis,MO,Missouri,True,,8307.0,1233.8,29510.0,St. Louis,{'29510':100},St. Louis,29510,False,False,America/Chicago,32.5,55.2,44.8,17.0,2.51,40247.0,13.5,12.8,172615.0,870.0,45.3,66.3,4.3,49.2,41.4,5.1,0.3,0.0,2.5,1.4
2506,MO,Missouri,Saint Louis,SAINT LOUIS UNIVERSITY                                           ,ONE GRAND BOULEVARD                               ,63103,2097,8,2,2016,68,2639,2.5,P,5,1,7,0,2015,78.0,2932.0,2.6,P,2014,81,2884,2.8,P,63103,38.629740000000005,-90.21678,Saint Louis,MO,Missouri,True,,8307.0,1233.8,29510.0,St. Louis,{'29510':100},St. Louis,29510,False,False,America/Chicago,32.5,55.2,44.8,17.0,2.51,40247.0,13.5,12.8,172615.0,870.0,45.3,66.3,4.3,49.2,41.4,5.1,0.3,0.0,2.5,1.4
8552,MO,Missouri,St Louis,STEVENS - THE INSTITUTE OF BUSINESS & ARTS                       ,1521 WASHINGTON AVENUE                            ,63103,0,6,3,2016,4,84,4.7,A,5,1,7,0,2015,11.0,76.0,14.4,A,2014,8,77,10.3,A,63103,38.629740000000005,-90.21678,Saint Louis,MO,Missouri,True,,8307.0,1233.8,29510.0,St. Louis,{'29510':100},St. Louis,29510,False,False,America/Chicago,32.5,55.2,44.8,17.0,2.51,40247.0,13.5,12.8,172615.0,870.0,45.3,66.3,4.3,49.2,41.4,5.1,0.3,0.0,2.5,1.4
2471,MO,Missouri,Saint Louis,SAINT LOUIS COMMUNITY COLLEGE                                    ,3221 MCKELVEY ROAD                                ,63044,2551,5,1,2016,213,1684,12.6,P,5,1,7,0,2015,261.0,1886.0,13.8,P,2014,248,2028,12.2,P,63044,38.76981,-90.42896999999999,Bridgeton,MO,Missouri,True,,10536.0,272.3,29189.0,St. Louis,{'29189':100},St. Louis,29189,False,False,America/Chicago,41.8,46.3,53.7,45.5,3.03,61061.0,26.2,68.5,161467.0,881.0,28.1,62.5,6.8,73.4,20.6,2.2,0.1,0.0,1.4,2.3
2476,MO,Missouri,Saint Louis,KENRICK - GLENNON SEMINARY                                       ,5200 GLENNON DRIVE                                ,63119,4330,8,2,2016,1,4,25.0,B,5,3,7,1,2015,1.0,4.0,25.0,B,2014,1,2,50.0,B,63119,38.58851,-90.35132,Saint Louis,MO,Missouri,True,,34119.0,1558.3,29189.0,St. Louis,"{'29189':99.06,'29510':0.94}",St. Louis|St. Louis,29189|29510,False,False,America/Chicago,39.8,46.2,53.8,53.7,3.08,82462.0,40.0,75.4,234911.0,995.0,62.6,65.5,3.4,87.0,7.8,2.5,0.1,0.0,0.5,2.1
2521,MO,Missouri,Saint Louis,WEBSTER UNIVERSITY                                               ,470 EAST LOCKWOOD AVENUE                          ,63119,3194,8,2,2016,211,4352,4.8,A,5,3,7,0,2015,235.0,5005.0,4.6,A,2014,237,5064,4.6,A,63119,38.58851,-90.35132,Saint Louis,MO,Missouri,True,,34119.0,1558.3,29189.0,St. Louis,"{'29189':99.06,'29510':0.94}",St. Louis|St. Louis,29189|29510,False,False,America/Chicago,39.8,46.2,53.8,53.7,3.08,82462.0,40.0,75.4,234911.0,995.0,62.6,65.5,3.4,87.0,7.8,2.5,0.1,0.0,0.5,2.1
2504,MO,Missouri,Saint Louis,ST. LOUIS COLLEGE OF PHARMACY                                    ,4588 PARKVIEW PLACE                               ,63110,1088,7,2,2016,2,266,0.7,P,5,1,7,0,2015,0.0,257.0,0.0,P,2014,1,241,0.4,P,63110,38.625859999999996,-90.26699,Saint Louis,MO,Missouri,True,,18208.0,1054.7,29510.0,St. Louis,{'29510':100},St. Louis,29510,False,False,America/Chicago,33.9,46.4,53.6,34.9,2.95,55414.0,24.9,43.6,194421.0,858.0,53.8,71.8,4.4,61.4,31.0,4.5,0.0,0.0,0.8,2.3
6389,MO,Missouri,Saint Louis,GOLDFARB SCHOOL OF NURSING AT BARNES-JEWISH COLLEGE              ,4483 DUNCAN                        MAILSTOP 90-36-,63110,1091,8,2,2016,6,460,1.3,P,5,1,7,0,2015,6.0,499.0,1.2,P,2014,1,455,0.2,P,63110,38.625859999999996,-90.26699,Saint Louis,MO,Missouri,True,,18208.0,1054.7,29510.0,St. Louis,{'29510':100},St. Louis,29510,False,False,America/Chicago,33.9,46.4,53.6,34.9,2.95,55414.0,24.9,43.6,194421.0,858.0,53.8,71.8,4.4,61.4,31.0,4.5,0.0,0.0,0.8,2.3
23405,MO,Missouri,Saint Louis,SAINT LOUIS COLLEGE OF HEALTH CAREERS                            ,909 SOUTH TAYLOR                                  ,63110,1511,6,3,2016,38,510,7.4,A,5,1,7,0,2015,49.0,615.0,7.9,A,2014,73,660,11.0,A,63110,38.625859999999996,-90.26699,Saint Louis,MO,Missouri,True,,18208.0,1054.7,29510.0,St. Louis,{'29510':100},St. Louis,29510,False,False,America/Chicago,33.9,46.4,53.6,34.9,2.95,55414.0,24.9,43.6,194421.0,858.0,53.8,71.8,4.4,61.4,31.0,4.5,0.0,0.0,0.8,2.3
4707,MO,Missouri,Saint Louis,COVENANT THEOLOGICAL SEMINARY                                    ,12330 CONWAY ROAD                                 ,63141,8609,8,2,2016,1,66,1.5,A,5,1,7,0,2015,4.0,86.0,4.6,A,2014,1,108,0.9,A,63141,38.65829,-90.45818,Saint Louis,MO,Missouri,True,,20550.0,564.0,29189.0,St. Louis,{'29189':100},St. Louis,29189,False,False,America/Chicago,47.5,48.5,51.5,57.3,2.91,111774.0,54.8,75.1,431681.0,1178.0,71.6,62.6,2.5,78.0,6.8,10.9,0.5,0.2,0.3,3.3
7540,MO,Missouri,Saint Louis,MISSOURI BAPTIST UNIVERSITY                                      ,ONE COLLEGE PARK DRIVE                            ,63141,8698,8,2,2016,66,954,6.9,A,5,1,7,0,2015,81.0,1170.0,6.9,A,2014,90,1105,8.1,A,63141,38.65829,-90.45818,Saint Louis,MO,Missouri,True,,20550.0,564.0,29189.0,St. Louis,{'29189':100},St. Louis,29189,False,False,America/Chicago,47.5,48.5,51.5,57.3,2.91,111774.0,54.8,75.1,431681.0,1178.0,71.6,62.6,2.5,78.0,6.8,10.9,0.5,0.2,0.3,3.3
12500,MO,Missouri,Saint Louis,RANKEN TECHNICAL COLLEGE                                         ,4431 FINNEY AVENUE                                ,63113,2811,6,2,2016,47,849,5.5,A,5,1,7,0,2015,60.0,1066.0,5.6,A,2014,92,1138,8.0,A,63113,38.657959999999996,-90.24756,Saint Louis,MO,Missouri,True,,11371.0,2001.2,29510.0,St. Louis,{'29510':100},St. Louis,29510,False,False,America/Chicago,43.2,48.9,51.1,15.8,3.4,28180.0,7.5,42.0,68782.0,745.0,16.1,54.5,15.9,3.3,94.8,0.5,0.0,0.0,0.0,1.4
25647,MO,Missouri,Saint Louis,ELAINE STEVEN BEAUTY COLLEGE                                     ,10420 WEST FLORISSANT                             ,63136,2343,3,3,2016,7,109,6.4,A,5,1,7,0,2015,7.0,126.0,5.5,A,2014,7,132,5.3,A,63136,38.7433,-90.25979,Saint Louis,MO,Missouri,True,,45411.0,1771.9,29189.0,St. Louis,"{'29189':93.01,'29510':6.99}",St. Louis|St. Louis,29189|29510,False,False,America/Chicago,34.1,43.7,56.3,25.7,3.16,32224.0,6.5,45.2,66077.0,871.0,10.9,61.1,11.3,7.1,89.5,0.0,0.3,0.0,0.6,2.4
41740,MO,Missouri,Saint Louis,SKIN INSTITUTE                                                   ,25 RONNIES PLAZA                                  ,63126,3552,2,3,2016,3,49,6.1,A,5,2,7,0,2015,3.0,42.0,7.1,A,2014,7,47,14.8,A,63126,38.54968,-90.37864,Saint Louis,MO,Missouri,True,,14781.0,1257.7,29189.0,St. Louis,{'29189':100},St. Louis,29189,False,False,America/Chicago,43.5,48.3,51.7,57.3,2.96,75331.0,34.2,84.5,192470.0,873.0,47.9,68.3,3.3,94.1,2.1,1.4,0.1,0.0,1.2,1.2
2519,MO,Missouri,St Louis,UNIVERSITY OF MISSOURI - SAINT LOUIS                             ,ONE UNIVERSITY BOULEVARD                          ,63121,4499,8,1,2016,218,3475,6.2,P,5,1,7,0,2015,248.0,3528.0,7.0,P,2014,252,3720,6.7,P,63121,38.707209999999996,-90.30135,Saint Louis,MO,Missouri,True,,24634.0,1431.4,29189.0,St. Louis,{'29189':100},St. Louis,29189,False,False,America/Chicago,40.6,44.6,55.4,27.9,3.08,37866.0,8.4,52.6,73219.0,864.0,20.6,59.0,10.7,13.8,82.3,1.0,0.1,0.0,1.4,1.4
2520,MO,Missouri,St Louis,WASHINGTON UNIVERSITY IN ST. LOUIS                               ,ONE BROOKINGS DRIVE                               ,63130,4899,8,2,2016,25,1571,1.5,P,5,1,7,0,2015,17.0,1672.0,1.0,P,2014,20,1708,1.1,P,63130,38.66506,-90.32523,Saint Louis,MO,Missouri,True,,28909.0,2309.1,29189.0,St. Louis,"{'29189':98.79,'29510':1.21}",St. Louis|St. Louis,29189|29510,False,False,America/Chicago,34.6,46.4,53.6,43.8,2.93,64097.0,32.8,56.8,261032.0,996.0,60.4,65.9,5.9,54.3,36.6,4.8,0.5,0.0,1.1,2.6
8645,NH,New Hampshire,Hookset,EMPIRE BEAUTY SCHOOLS                                            ,1328 HOOKSETT ROAD                                ,3106,9716,3,3,2016,10,155,6.4,A,5,1,1,0,2015,10.0,143.0,6.9,A,2014,12,146,8.2,A,3106,43.07113,-71.43638,Hooksett,NH,New Hampshire,True,,14203.0,142.9,33013.0,Merrimack,{'33013':100},Merrimack,33013,False,False,America/New_York,39.9,47.9,52.1,55.0,3.01,84375.0,38.9,78.2,247150.0,1234.0,39.2,70.8,4.0,95.4,1.3,0.9,0.0,0.0,0.6,1.8
22470,NH,New Hampshire,West Lebanon,NEW ENGLAND SCHOOL OF HAIR DESIGN                                ,12 INTERCHANGE DRIVE                              ,3784,2003,3,3,2016,8,79,10.1,B,5,2,1,1,2015,7.0,87.0,8.0,B,2014,3,31,9.6,A,3784,43.6368,-72.30594,West Lebanon,NH,New Hampshire,True,,4004.0,188.2,33009.0,Grafton,{'33009':100},Grafton,33009,False,False,America/New_York,37.4,50.8,49.2,50.0,2.85,55061.0,24.7,47.1,253987.0,995.0,54.4,60.6,2.6,85.2,4.2,9.0,0.0,0.0,0.7,0.8
22346,NJ,New Jersey,Egg Harbor Township,ATLANTIC BEAUTY & SPA ACADEMY                                    ,3003 ENGLISH CREEK AVENUE          SUITE C-3/4/4B ,8234,2621,3,3,2016,9,98,9.1,A,5,2,2,0,2015,10.0,122.0,8.1,A,2014,9,119,7.5,A,8234,39.38657,-74.62376,Egg Harbor Township,NJ,New Jersey,True,,42081.0,270.9,34001.0,Atlantic,{'34001':100},Atlantic,34001,False,False,America/New_York,40.0,46.7,53.3,53.2,3.47,78534.0,39.3,87.3,212095.0,999.0,31.8,69.8,8.5,68.3,8.5,11.3,0.2,0.0,6.5,5.1
35363,NJ,New Jersey,Haskell,INSTITUTE FOR THERAPEUTIC MASSAGE                                ,1069 RINGWOOD AVENUE               SUITE 215      ,7420,1452,3,3,2016,15,105,14.2,A,5,8,2,0,2015,16.0,108.0,14.8,A,2014,10,81,12.3,A,7420,41.03255,-74.30115,Haskell,NJ,New Jersey,True,,5100.0,766.2,34031.0,Passaic,{'34031':100},Passaic,34031,False,False,America/New_York,41.3,52.1,47.9,48.7,3.45,81737.0,37.0,85.7,258267.0,1474.0,26.5,64.4,5.4,78.8,5.3,7.1,0.0,0.0,3.7,5.1
2671,NY,New York,Annandale-On-Hudson,BARD COLLEGE                                                     ,ANNANDALE ROAD                                    ,12504,5000,8,2,2016,29,607,4.7,P,5,20,2,0,2015,11.0,547.0,2.0,P,2014,17,482,3.5,P,12504,42.02963,-73.91605,Annandale On Hudson,NY,New York,True,,1498.0,366.5,36027.0,Dutchess,{'36027':100},Dutchess,36027,False,False,America/New_York,19.8,43.7,56.3,4.0,2.92,151667.0,71.4,28.6,,1444.0,70.0,41.7,4.6,75.6,4.3,13.4,0.8,0.0,0.7,5.3
7573,NY,New York,Astoria,EMPIRE BEAUTY SCHOOL                                             ,38-15 BROADWAY                                    ,11103,4028,4,3,2016,395,2614,15.1,P,5,14,2,0,2015,268.0,1749.0,15.3,P,2014,237,1688,14.0,P,11103,40.76251,-73.91342,Astoria,NY,New York,True,,36140.0,21044.4,36081.0,Queens,{'36081':100},Queens,36081,False,False,America/New_York,33.8,48.7,51.3,38.1,2.98,71437.0,33.4,16.2,791990.0,1700.0,51.7,74.7,6.4,70.9,2.7,14.9,0.3,0.1,7.6,3.5
2697,NY,New York,Bayside,QUEENSBOROUGH COMMUNITY COLLEGE-CUNY                             ,56TH AVENUE & SPRINGFIELD BOULEVARD               ,11364,1497,5,1,2016,59,736,8.0,A,5,5,2,0,2015,70.0,754.0,9.2,A,2014,77,669,11.5,A,11364,40.74532,-73.76059000000001,Oakland Gardens,NY,New York,True,,36806.0,5406.6,36081.0,Queens,{'36081':100},Queens,36081,False,False,America/New_York,44.8,49.0,51.0,55.5,3.27,76988.0,40.4,73.7,532302.0,1753.0,43.3,62.8,4.4,40.0,2.6,52.1,0.9,0.0,2.8,1.7
39034,NY,New York,"Bronx, Ny",AMERICAN BEAUTY SCHOOL                                           ,1380 METROPOLITAN AVENUE                          ,10462,8003,3,3,2016,12,138,8.6,A,5,7,2,0,2015,12.0,149.0,8.0,A,2014,18,156,11.5,A,10462,40.842690000000005,-73.8586,Bronx,NY,New York,True,,76756.0,19848.6,36005.0,Bronx,{'36005':100},Bronx,36005,False,False,America/New_York,36.3,47.0,53.0,37.0,3.31,52409.0,19.4,22.3,298928.0,1342.0,25.5,66.9,10.5,23.2,28.3,12.6,0.9,0.0,29.7,5.3
2820,NY,New York,Brooklyn Heights,SAINT FRANCIS COLLEGE                                            ,180 REMSEN STREET                                 ,11201,4398,8,2,2016,49,595,8.2,A,5,11,2,0,2015,69.0,633.0,10.9,A,2014,56,605,9.2,A,11201,40.69463,-73.98971999999999,Brooklyn,NY,New York,True,,62823.0,14028.1,36047.0,Kings,{'36047':100},Kings,36047,False,False,America/New_York,35.2,47.8,52.2,42.9,2.86,124996.0,59.3,37.1,894387.0,2410.0,74.1,71.5,5.4,64.1,13.6,11.8,0.2,0.1,4.3,5.9
2665,NY,New York,Flushing,VAUGHN COLLEGE OF AERONAUTICS AND TECHNOLOGY                     ,86-01 23RD AVENUE                                 ,11369,9997,8,2,2016,32,552,5.7,A,3,7,2,0,2015,21.0,616.0,3.4,A,2014,16,637,2.5,A,11369,40.76339,-73.87238,East Elmhurst,NY,New York,True,,34118.0,13674.1,36081.0,Queens,{'36081':100},Queens,36081,False,False,America/New_York,38.3,49.2,50.8,42.7,3.86,54121.0,23.2,54.5,557862.0,1503.0,17.2,60.1,6.8,28.8,16.3,12.3,0.2,0.0,38.8,3.5
2690,NY,New York,Flushing,CUNY QUEENS COLLEGE                                              ,65-30 KISSENA BOULEVARD                           ,11367,1597,8,1,2016,75,1584,4.7,A,5,9,2,0,2015,70.0,1598.0,4.3,A,2014,84,1670,5.0,A,11367,40.73041,-73.82623000000001,Flushing,NY,New York,True,,41824.0,6728.6,36081.0,Queens,{'36081':100},Queens,36081,False,False,America/New_York,36.4,48.1,51.9,51.3,3.37,57933.0,27.8,46.7,463198.0,1366.0,36.8,60.3,6.1,56.0,8.4,26.0,0.2,0.0,5.3,4.0
3978,NY,New York,Flushing,RABBINICAL SEMINARY OF AMERICA                                   ,76-01 147TH STREET                                ,11367,3148,7,2,2016,0,3,0.0,B,5,9,2,1,2015,,,,,2014,0,2,0.0,B,11367,40.73041,-73.82623000000001,Flushing,NY,New York,True,,41824.0,6728.6,36081.0,Queens,{'36081':100},Queens,36081,False,False,America/New_York,36.4,48.1,51.9,51.3,3.37,57933.0,27.8,46.7,463198.0,1366.0,36.8,60.3,6.1,56.0,8.4,26.0,0.2,0.0,5.3,4.0
20937,NY,New York,Flushing,LONG ISLAND BUSINESS INSTITUTE                                   ,"136-18 39TH AVENUE, 5TH FLOOR                     ",11354,2997,5,3,2016,7,44,15.9,A,5,2,2,0,2015,7.0,56.0,12.5,A,2014,8,95,8.4,A,11354,40.76863,-73.82739000000001,Flushing,NY,New York,True,,55200.0,9727.7,36081.0,Queens,{'36081':100},Queens,36081,False,False,America/New_York,45.5,45.3,54.7,52.0,3.21,42500.0,18.3,38.7,480116.0,1440.0,20.5,55.3,4.2,20.8,3.2,62.8,0.2,0.0,10.6,2.4
41337,NY,New York,Flushing,NEW YORK MEDICAL CAREER TRAINING CENTER                          ,36-09 MAIN STREET                  5TH FLOOR      ,11354,6504,4,3,2016,23,136,16.9,A,5,5,2,0,2015,13.0,93.0,13.9,A,2014,10,96,10.4,A,11354,40.76863,-73.82739000000001,Flushing,NY,New York,True,,55200.0,9727.7,36081.0,Queens,{'36081':100},Queens,36081,False,False,America/New_York,45.5,45.3,54.7,52.0,3.21,42500.0,18.3,38.7,480116.0,1440.0,20.5,55.3,4.2,20.8,3.2,62.8,0.2,0.0,10.6,2.4
42232,NY,New York,Flushing,GRACE INTERNATIONAL BEAUTY SCHOOL                                ,136-31 41ST AVENUE                                ,11355,2446,3,3,2016,0,31,0.0,A,5,6,2,0,2015,0.0,9.0,0.0,B,2014,0,0,0.0,A,11355,40.75148,-73.82092,Flushing,NY,New York,True,,80853.0,19106.8,36081.0,Queens,{'36081':100},Queens,36081,False,False,America/New_York,42.8,47.8,52.2,55.9,3.39,39207.0,17.1,30.1,573976.0,1392.0,19.5,55.9,4.0,13.2,3.4,72.7,0.8,0.1,7.6,2.3
12358,NY,New York,Forest Hills,PLAZA COLLEGE                                                    ,118-33 QUEENS BOULEVARD                           ,11375,7324,6,3,2016,1,455,0.2,A,5,7,2,0,2015,3.0,388.0,0.7,A,2014,1,610,0.1,A,11375,40.72092,-73.84611,Forest Hills,NY,New York,True,,73488.0,13340.8,36081.0,Queens,{'36081':100},Queens,36081,False,False,America/New_York,42.7,45.9,54.1,53.6,3.01,80542.0,40.1,50.8,399379.0,1731.0,61.1,64.9,4.4,60.8,2.7,28.0,0.3,0.0,3.5,4.7
40433,NY,New York,Forest Hills,ACE INSTITUTE OF TECHNOLOGY                                      ,109-19 72ND RD.                    SUITE 4F       ,11375,5337,3,3,2016,14,103,13.5,A,5,9,2,0,2015,14.0,87.0,16.0,A,2014,11,66,16.6,A,11375,40.72092,-73.84611,Forest Hills,NY,New York,True,,73488.0,13340.8,36081.0,Queens,{'36081':100},Queens,36081,False,False,America/New_York,42.7,45.9,54.1,53.6,3.01,80542.0,40.1,50.8,399379.0,1731.0,61.1,64.9,4.4,60.8,2.7,28.0,0.3,0.0,3.5,4.7
2823,NY,New York,Jamaica,SAINT JOHN'S UNIVERSITY                                          ,8000 UTOPIA PARKWAY                               ,11439,1343,8,2,2016,191,3481,5.4,P,5,6,2,0,2015,167.0,3749.0,4.4,P,2014,187,4158,4.4,P,11439,40.72287,-73.78836,Jamaica,NY,New York,False,11366.0,,,36081.0,Queens,"{""36081"": 100}",Queens,36081,False,False,America/New_York,,,,,,,,,,,,,,,,,,,,
4759,NY,New York,Jamaica,CUNY YORK COLLEGE                                                ,94-20 GUY R BREWER BOULEVARD                      ,11451,1,8,1,2016,29,522,5.5,A,5,6,2,0,2015,35.0,570.0,6.1,A,2014,39,573,6.8,A,11451,40.7012,-73.79596,Jamaica,NY,New York,True,,0.0,0.0,36081.0,Queens,{'36081':0},Queens,36081,False,False,America/New_York,,,,,,,,,,,,,,,,,,,,
33583,NY,New York,Jamaica,ALLEN SCHOOL                                                     ,163-18 JAMAICA AVENUE              3RD FLOOR      ,11432,4901,5,3,2016,278,1540,18.0,A,5,6,2,0,2015,330.0,1831.0,18.0,A,2014,266,1442,18.4,A,11432,40.71533,-73.79306,Jamaica,NY,New York,True,,62053.0,10923.4,36081.0,Queens,{'36081':100},Queens,36081,False,False,America/New_York,36.0,47.2,52.8,46.9,3.75,55906.0,24.8,36.6,583795.0,1453.0,36.1,61.2,7.4,19.1,16.0,41.6,0.6,0.2,17.7,4.8
35373,NY,New York,Jamaica,NEW YORK AUTOMOTIVE & DIESEL INSTITUTE                           ,178-18 LIBERTY AVENUE                             ,11433,1433,5,3,2016,55,280,19.6,A,5,14,2,0,2015,64.0,290.0,22.0,A,2014,74,388,19.0,A,11433,40.69818,-73.78687,Jamaica,NY,New York,True,,36489.0,8145.6,36081.0,Queens,{'36081':100},Queens,36081,False,False,America/New_York,35.0,45.8,54.2,31.2,4.07,51521.0,22.8,44.5,411067.0,1282.0,16.2,63.2,13.8,3.9,64.3,8.8,0.0,0.0,19.8,3.2
7518,NY,New York,Long Island City,APEX TECHNICAL SCHOOL                                            ,24-02 QUEENS PLAZA SOUTH                          ,11101,4602,3,3,2016,274,974,28.1,A,5,8,2,0,2015,267.0,989.0,26.9,A,2014,296,1198,24.7,A,11101,40.74671,-73.93893,Long Island City,NY,New York,True,,30043.0,3779.2,36081.0,Queens,{'36081':100},Queens,36081,False,False,America/New_York,34.1,50.9,49.1,39.6,3.01,65392.0,35.5,16.9,919360.0,1608.0,48.1,70.9,7.5,43.0,15.7,22.8,0.6,0.1,12.4,5.4
10051,NY,New York,Long Island City,CUNY LAGUARDIA COMMUNITY COLLEGE                                 ,31-10 THOMSON AVENUE                              ,11101,3083,5,1,2016,78,631,12.3,A,3,14,2,0,2015,61.0,642.0,9.5,A,2014,78,675,11.5,A,11101,40.74671,-73.93893,Long Island City,NY,New York,True,,30043.0,3779.2,36081.0,Queens,{'36081':100},Queens,36081,False,False,America/New_York,34.1,50.9,49.1,39.6,3.01,65392.0,35.5,16.9,919360.0,1608.0,48.1,70.9,7.5,43.0,15.7,22.8,0.6,0.1,12.4,5.4
10551,NY,New York,Long Island City,NEW YORK SCHOOL FOR MEDICAL & DENTAL ASSISTANTS                  ,33-10 QUEENS BOULEVARD             2ND FLOOR      ,11101,2327,5,3,2016,20,259,7.7,A,5,9,2,0,2015,21.0,304.0,6.9,A,2014,20,438,4.5,A,11101,40.74671,-73.93893,Long Island City,NY,New York,True,,30043.0,3779.2,36081.0,Queens,{'36081':100},Queens,36081,False,False,America/New_York,34.1,50.9,49.1,39.6,3.01,65392.0,35.5,16.9,919360.0,1608.0,48.1,70.9,7.5,43.0,15.7,22.8,0.6,0.1,12.4,5.4
11830,NY,New York,Long Island City,BERK TRADE & BUSINESS SCHOOL                                     ,33-09 QUEENS BOULEVARD             2ND FLOOR      ,11101,0,2,3,2016,67,223,30.0,A,5,10,2,0,2015,52.0,216.0,24.0,A,2014,30,137,21.8,A,11101,40.74671,-73.93893,Long Island City,NY,New York,True,,30043.0,3779.2,36081.0,Queens,{'36081':100},Queens,36081,False,False,America/New_York,34.1,50.9,49.1,39.6,3.01,65392.0,35.5,16.9,919360.0,1608.0,48.1,70.9,7.5,43.0,15.7,22.8,0.6,0.1,12.4,5.4
31913,NY,New York,Long Island City,CUNY SCHOOL OF LAW '(THE)'                                       ,2 COURT SQUARE                                    ,11101,4356,7,1,2016,2,114,1.7,A,5,5,2,0,2015,3.0,139.0,2.1,A,2014,3,143,2.0,A,11101,40.74671,-73.93893,Long Island City,NY,New York,True,,30043.0,3779.2,36081.0,Queens,{'36081':100},Queens,36081,False,False,America/New_York,34.1,50.9,49.1,39.6,3.01,65392.0,35.5,16.9,919360.0,1608.0,48.1,70.9,7.5,43.0,15.7,22.8,0.6,0.1,12.4,5.4
2788,NY,New York,Niagara University,NIAGARA UNIVERSITY                                               ,LEWISTON ROAD                                     ,14109,2010,8,2,2016,50,959,5.2,A,5,28,2,0,2015,47.0,937.0,5.0,A,2014,40,928,4.3,A,14109,43.13777,-79.03520999999999,Niagara University,NY,New York,True,,1131.0,908.7,36063.0,Niagara,{'36063':100},Niagara,36063,False,False,America/Toronto,19.4,42.2,57.8,0.0,,,,,,,27.3,32.9,0.0,85.8,5.0,0.9,0.0,0.0,4.2,4.2
2760,NY,New York,Purchase,MANHATTANVILLE COLLEGE                                           ,2900 PURCHASE STREET                              ,10577,2132,8,2,2016,26,579,4.4,A,5,18,2,0,2015,32.0,603.0,5.3,A,2014,44,686,6.4,A,10577,41.037859999999995,-73.71365,Purchase,NY,New York,True,,6373.0,375.7,36119.0,Westchester,{'36119':100},Westchester,36119,False,False,America/New_York,20.4,46.2,53.8,24.4,3.27,202583.0,71.0,86.2,1086135.0,3501.0,73.2,51.3,12.5,73.2,13.2,5.1,0.3,0.2,2.9,5.1
6791,NY,New York,Purchase,SUNY COLLEGE AT PURCHASE                                         ,735 ANDERSON HILL ROAD                            ,10577,1400,8,1,2016,61,994,6.1,A,5,18,2,0,2015,66.0,1023.0,6.4,A,2014,58,953,6.0,A,10577,41.037859999999995,-73.71365,Purchase,NY,New York,True,,6373.0,375.7,36119.0,Westchester,{'36119':100},Westchester,36119,False,False,America/New_York,20.4,46.2,53.8,24.4,3.27,202583.0,71.0,86.2,1086135.0,3501.0,73.2,51.3,12.5,73.2,13.2,5.1,0.3,0.2,2.9,5.1
12364,NY,New York,Rego Park,ST. PAUL'S SCHOOL OF NURSING                                     ,97-77 QUEENS BOULEVARD                            ,11374,0,5,3,2016,10,225,4.4,A,5,5,2,0,2015,9.0,309.0,2.9,A,2014,20,306,6.5,A,11374,40.72651,-73.86149,Rego Park,NY,New York,True,,42653.0,17850.4,36081.0,Queens,{'36081':100},Queens,36081,False,False,America/New_York,43.8,45.9,54.1,49.0,3.02,63161.0,30.3,38.8,361548.0,1591.0,50.4,62.9,4.4,52.7,4.4,32.1,0.1,0.0,5.7,4.9
36523,NY,New York,Rego Park,METROPOLITAN LEARNING INSTITUTE                                  ,97-77 QUEENS BOULEVARD             9TH FLOOR      ,11374,2101,3,2,2016,9,111,8.1,B,5,9,2,1,2015,10.0,213.0,4.6,B,2014,6,84,7.1,A,11374,40.72651,-73.86149,Rego Park,NY,New York,True,,42653.0,17850.4,36081.0,Queens,{'36081':100},Queens,36081,False,False,America/New_York,43.8,45.9,54.1,49.0,3.02,63161.0,30.3,38.8,361548.0,1591.0,50.4,62.9,4.4,52.7,4.4,32.1,0.1,0.0,5.7,4.9
2703,NY,New York,Riverdale,COLLEGE OF MOUNT SAINT VINCENT                                   ,6301 RIVERDALE AVENUE                             ,10471,1093,8,2,2016,38,554,6.8,A,3,17,2,0,2015,35.0,576.0,6.0,A,2014,39,548,7.1,A,10471,40.89947,-73.9018,Bronx,NY,New York,True,,21896.0,3441.8,36005.0,Bronx,{'36005':100},Bronx,36005,False,False,America/New_York,44.9,47.4,52.6,40.8,2.95,85707.0,41.9,48.8,343814.0,1548.0,54.7,57.4,7.2,68.7,11.8,6.2,0.2,0.0,9.7,3.4
2758,NY,New York,Riverdale,MANHATTAN COLLEGE                                                ,4513 MANHATTAN COLLEGE PARKWAY                    ,10471,4098,8,2,2016,32,846,3.7,A,5,17,2,0,2015,23.0,803.0,2.8,A,2014,23,759,3.0,A,10471,40.89947,-73.9018,Bronx,NY,New York,True,,21896.0,3441.8,36005.0,Bronx,{'36005':100},Bronx,36005,False,False,America/New_York,44.9,47.4,52.6,40.8,2.95,85707.0,41.9,48.8,343814.0,1548.0,54.7,57.4,7.2,68.7,11.8,6.2,0.2,0.0,9.7,3.4
2956,NC,North Carolina,Winston Salem,PIEDMONT INTERNATIONAL UNIVERSITY                                ,420 S. BROAD STREET                               ,27101,5025,8,2,2016,35,336,10.4,P,5,12,4,0,2015,51.0,377.0,13.5,P,2014,75,416,18.0,P,27101,36.11175,-80.19854000000001,Winston Salem,NC,North Carolina,True,,19681.0,571.6,37067.0,Forsyth,{'37067':100},Forsyth,37067,False,False,America/New_York,35.6,51.2,48.8,29.6,3.14,31805.0,12.6,33.9,126057.0,670.0,30.2,56.2,8.5,47.0,46.1,1.5,0.2,0.0,2.4,2.8
30514,OH,Ohio,Concord Township,AUBURN CAREER CENTER                                             ,8140 AUBURN ROAD                                  ,44077,9723,3,1,2016,14,105,13.3,A,5,14,5,0,2015,19.0,100.0,19.0,A,2014,12,54,22.2,A,44077,41.69943,-81.21075,Painesville,OH,Ohio,True,,56353.0,359.1,39085.0,Lake,{'39085':100},Lake,39085,False,False,America/New_York,40.2,49.0,51.0,50.9,3.03,63381.0,27.3,71.5,160995.0,842.0,26.6,65.5,4.7,86.4,5.6,0.7,0.2,0.0,2.8,4.3
9941,OH,Ohio,Saint Clairsville,BELMONT COLLEGE                                                  ,68094 HAMMOND ROAD                                ,43950,9766,5,1,2016,68,349,19.4,A,5,18,5,0,2015,91.0,486.0,18.7,A,2014,171,727,23.5,A,43950,40.0962,-80.92588,Saint Clairsville,OH,Ohio,True,,16446.0,73.8,39013.0,Belmont,"{'39013':99.39,'39067':0.61}",Belmont|Harrison,39013|39067,False,False,America/New_York,44.6,58.1,41.9,44.0,3.04,65533.0,27.4,81.2,154429.0,757.0,23.7,49.2,5.1,87.1,8.8,1.0,0.3,0.0,1.1,1.7
10880,OH,Ohio,Saint Martin,CHATFIELD COLLEGE                                                ,20918 STATE ROUTE 251                             ,45118,9705,5,2,2016,30,211,14.2,A,5,2,5,0,2015,28.0,243.0,11.5,A,2014,35,235,14.8,A,45118,39.17029,-83.93324,Fayetteville,OH,Ohio,True,,3579.0,35.5,39015.0,Brown,"{'39015':95.71,'39025':3.46,'39071':0.83}",Brown|Clermont|Highland,39015|39025|39071,False,False,America/New_York,45.3,51.1,48.9,57.8,2.88,62219.0,21.7,79.7,149261.0,888.0,13.5,61.4,4.7,95.3,0.5,0.1,1.0,0.0,2.7,0.6
3198,OR,Oregon,Mcminnville,LINFIELD COLLEGE                                                 ,900 SOUTHEAST BAKER STREET                        ,97128,6894,8,2,2016,19,744,2.5,A,5,1,10,0,2015,20.0,815.0,2.4,A,2014,17,863,1.9,A,97128,45.19704,-123.25456000000001,Mcminnville,OR,Oregon,True,,38160.0,130.6,41071.0,Yamhill,{'41071':100},Yamhill,41071,False,False,America/Los_Angeles,37.1,49.8,50.2,49.5,3.22,53815.0,23.7,63.9,247248.0,935.0,26.3,58.6,5.7,88.0,1.2,1.4,0.8,0.4,4.7,3.5
3988,PA,Pennsylvania,Aston,NEUMANN UNIVERSITY                                               ,ONE NEUMANN DRIVE                                 ,19014,1298,8,2,2016,91,926,9.8,A,5,7,3,0,2015,90.0,917.0,9.8,A,2014,84,883,9.5,A,19014,39.863620000000004,-75.43358,Aston,PA,Pennsylvania,True,,21101.0,910.5,42045.0,Delaware,{'42045':100},Delaware,42045,False,False,America/New_York,42.2,47.0,53.0,48.4,3.15,85000.0,39.2,86.7,231870.0,1036.0,31.8,66.7,5.1,88.0,7.2,2.5,0.4,0.0,0.5,1.5
9723,PA,Pennsylvania,Feasterville Trevose,ARIA HEALTH SCHOOL OF NURSING                                    ,THREE NESHAMINY INTERPLEX                         ,19053,6939,11,2,2016,5,91,5.4,A,5,1,3,0,2015,1.0,73.0,1.3,A,2014,4,88,4.5,A,19053,40.1547,-74.97952,Feasterville Trevose,PA,Pennsylvania,True,,26383.0,957.2,42017.0,Bucks,{'42017':100},Bucks,42017,False,False,America/New_York,40.9,49.3,50.7,56.3,3.17,83095.0,38.9,80.6,289171.0,1134.0,31.8,68.4,4.4,89.2,3.1,4.8,0.0,0.3,0.4,2.1
25545,PA,Pennsylvania,Hazle Township,HAZLETON AREA CAREER CENTER                                      ,1451 WEST 23RD STREET                             ,18202,1597,3,1,2016,1,49,2.0,B,5,11,3,1,2015,2.0,52.0,3.8,B,2014,2,61,3.2,B,18202,40.95148,-76.04682,Hazleton,PA,Pennsylvania,True,,11716.0,142.8,42079.0,Luzerne,"{'42079':96.42,'42107':3.58}",Luzerne|Schuylkill,42079|42107,False,False,America/New_York,45.1,48.3,51.7,42.7,2.93,41329.0,15.1,60.2,120056.0,767.0,15.7,54.2,6.2,80.1,4.6,0.5,0.1,0.0,13.7,1.0
3276,PA,Pennsylvania,Immaculata,IMMACULATA UNIVERSITY                                            ,1145 KING ROAD                                    ,19345,647,8,2,2016,38,721,5.2,A,5,7,3,0,2015,48.0,822.0,5.8,A,2014,57,849,6.7,A,19345,40.02943,-75.56528,Immaculata,PA,Pennsylvania,True,,689.0,1298.5,42029.0,Chester,{'42029':100},Chester,42029,False,False,America/New_York,20.8,14.8,85.2,9.7,,,,,,,54.6,53.8,15.6,72.9,20.0,0.0,0.0,0.0,1.2,6.0
37663,PA,Pennsylvania,King Of Prussia,CORTIVA INSTITUTE                                                ,211 SOUTH GULPH ROAD               SUITE 100      ,19406,3101,3,3,2016,34,214,15.8,A,5,7,3,0,2015,44.0,226.0,19.4,A,2014,36,180,20.0,A,19406,40.0944,-75.38246,King Of Prussia,PA,Pennsylvania,True,,24187.0,654.5,42091.0,Montgomery,{'42091':100},Montgomery,42091,False,False,America/New_York,37.5,49.9,50.1,54.6,2.98,88239.0,42.9,60.6,304752.0,1409.0,59.0,70.4,4.3,69.0,5.7,21.1,0.0,0.0,1.2,3.1
6560,PA,Pennsylvania,Mckees Rocks,OHIO VALLEY GENERAL HOSPITAL SCHOOL OF NURSING                   ,25 HECKEL ROAD                                    ,15136,1694,3,2,2016,2,31,6.4,A,5,14,3,0,2015,3.0,70.0,4.2,B,2014,6,87,6.8,B,15136,40.467890000000004,-80.10438,Mc Kees Rocks,PA,Pennsylvania,True,,22492.0,758.4,42003.0,Allegheny,{'42003':100},Allegheny,42003,False,False,America/New_York,40.5,49.7,50.3,44.6,2.99,51600.0,22.3,62.6,135681.0,734.0,27.6,64.4,6.8,77.0,15.8,2.0,0.2,0.0,1.1,3.9
3359,PA,Pennsylvania,Moon Township,ROBERT MORRIS UNIVERSITY                                         ,6001 UNIVERSITY BOULEVARD                         ,15108,1189,8,2,2016,64,1396,4.5,A,5,18,3,0,2015,66.0,1450.0,4.5,A,2014,58,1383,4.1,A,15108,40.49998,-80.19959,Coraopolis,PA,Pennsylvania,True,,41524.0,392.6,42003.0,Allegheny,{'42003':100},Allegheny,42003,False,False,America/New_York,40.6,49.4,50.6,52.7,2.92,74978.0,36.2,72.3,191238.0,945.0,45.4,66.8,4.3,86.3,6.4,3.8,0.1,0.0,0.3,3.2
3241,PA,Pennsylvania,Radnor,CABRINI UNIVERSITY                                               ,610 KING OF PRUSSIA ROAD                          ,19087,3698,8,2,2016,51,616,8.2,A,5,6,3,0,2015,52.0,766.0,6.7,A,2014,42,824,5.0,A,19087,40.06116,-75.39986999999999,Wayne,PA,Pennsylvania,True,,32934.0,779.5,42029.0,Chester,"{'42029':45.28,'42045':43.12,'42091':11.61}",Chester|Delaware|Montgomery,42029|42045|42091,False,False,America/New_York,41.2,48.2,51.8,56.4,3.17,137943.0,63.0,76.9,558460.0,1510.0,76.7,66.1,3.9,82.7,4.8,9.5,0.0,0.0,1.0,2.0
3259,PA,Pennsylvania,St Davids,EASTERN UNIVERSITY                                               ,1300 EAGLE ROAD                                   ,19087,3696,8,2,2016,88,1245,7.0,P,5,7,3,0,2015,88.0,1228.0,7.1,P,2014,80,1232,6.4,P,19087,40.06116,-75.39986999999999,Wayne,PA,Pennsylvania,True,,32934.0,779.5,42029.0,Chester,"{'42029':45.28,'42045':43.12,'42091':11.61}",Chester|Delaware|Montgomery,42029|42045|42091,False,False,America/New_York,41.2,48.2,51.8,56.4,3.17,137943.0,63.0,76.9,558460.0,1510.0,76.7,66.1,3.9,82.7,4.8,9.5,0.0,0.0,1.0,2.0
2670,PA,Pennsylvania,South Abington Twp.,CLARKS SUMMIT UNIVERSITY                                         ,538 VENARD ROAD                                   ,18411,1250,8,2,2016,14,218,6.4,A,5,10,3,0,2015,14.0,206.0,6.7,A,2014,17,230,7.3,A,18411,41.45427,-75.74521,Clarks Summit,PA,Pennsylvania,True,,21738.0,156.2,42069.0,Lackawanna,{'42069':100},Lackawanna,42069,False,False,America/New_York,46.2,48.7,51.3,56.8,2.94,74961.0,36.3,80.0,231007.0,994.0,44.8,60.8,3.0,95.0,1.3,1.6,0.1,0.0,0.1,1.9
3329,PA,Pennsylvania,University Park,PENNSYLVANIA STATE UNIVERSITY (THE)                              ,PRESIDENT'S OFFICE                 201 OLD MAIN   ,16802,1503,8,1,2016,919,18631,4.9,P,5,5,3,0,2015,983.0,19227.0,5.1,P,2014,1010,19272,5.2,P,16802,40.80268,-77.86064,University Park,PA,Pennsylvania,True,,11611.0,5909.5,42027.0,Centre,{'42027':100},Centre,42027,False,False,America/New_York,19.3,47.3,52.7,0.3,1.94,,0.0,0.0,,,59.7,25.0,11.9,80.8,5.8,10.5,0.0,0.0,0.6,2.4
22897,PA,Pennsylvania,Wilkes Barre,JOLIE HEALTH AND BEAUTY ACADEMY                                  ,125 NORTH WILKES BARRE BOULEVARD                  ,18702,5354,3,3,2016,67,228,29.3,A,5,11,3,0,2015,48.0,243.0,19.7,A,2014,28,139,20.1,A,18702,41.22083,-75.77365999999999,Wilkes Barre,PA,Pennsylvania,True,,39841.0,224.4,42079.0,Luzerne,{'42079':100},Luzerne,42079,False,False,America/New_York,38.4,49.6,50.4,37.9,3.22,40916.0,14.6,55.7,85914.0,807.0,18.9,58.0,10.2,74.9,13.0,2.4,0.4,0.3,4.3,4.8
30018,TN,Tennessee,Gallain,WELCH COLLEGE                                                    ,1045 BISON TRAIL                                  ,37066,8460,8,2,2016,4,79,5.0,A,5,5,4,0,2015,6.0,68.0,8.8,A,2014,8,74,10.8,A,37066,36.398720000000004,-86.45526,Gallatin,TN,Tennessee,True,,50328.0,144.2,47165.0,Sumner,{'47165':100},Sumner,47165,False,False,America/Chicago,39.5,49.6,50.4,53.3,3.13,60065.0,26.4,67.4,223925.0,941.0,27.0,62.9,3.6,80.6,11.9,1.8,0.4,0.2,2.3,2.8
7783,TN,Tennessee,Madison,MIDDLE TENNESSEE SCHOOL OF ANESTHESIA                            ,315 HOSPITAL DRIVE                                ,37115,417,8,2,2016,0,53,0.0,A,5,5,4,0,2015,0.0,51.0,0.0,A,2014,0,59,0.0,A,37115,36.254490000000004,-86.69609,Madison,TN,Tennessee,True,,40484.0,676.8,47037.0,Davidson,{'47037':100},Davidson,47037,False,False,America/Chicago,36.0,47.3,52.7,34.8,3.24,43521.0,10.5,42.5,150004.0,919.0,18.5,68.4,7.4,50.8,35.4,1.1,0.2,0.0,10.2,2.3
21253,TN,Tennessee,Madison,NASHVILLE COLLEGE OF MEDICAL CAREERS                             ,1556 CRESTVIEW DRIVE                              ,37115,2120,3,3,2016,6,110,5.4,P,5,5,4,0,2015,7.0,154.0,4.5,P,2014,8,149,5.3,P,37115,36.254490000000004,-86.69609,Madison,TN,Tennessee,True,,40484.0,676.8,47037.0,Davidson,{'47037':100},Davidson,47037,False,False,America/Chicago,36.0,47.3,52.7,34.8,3.24,43521.0,10.5,42.5,150004.0,919.0,18.5,68.4,7.4,50.8,35.4,1.1,0.2,0.0,10.2,2.3
3480,TN,Tennessee,Mckenzie,BETHEL UNIVERSITY                                                ,325 CHERRY AVENUE                                 ,38201,1705,8,2,2016,278,2466,11.2,A,5,8,4,0,2015,355.0,2907.0,12.2,A,2014,367,2633,13.9,A,38201,36.122840000000004,-88.52911999999999,Mc Kenzie,TN,Tennessee,True,,11005.0,27.6,47017.0,Carroll,"{'47017':78.27,'47079':6.09,'47183':15.63}",Carroll|Henry|Weakley,47017|47079|47183,False,False,America/Chicago,38.5,48.3,51.7,47.9,3.13,38920.0,11.1,72.2,93307.0,632.0,20.9,52.0,7.8,91.4,6.5,0.4,0.2,0.0,0.0,1.4
3511,TN,Tennessee,Milligan College,MILLIGAN COLLEGE                                                 ,ONE BLOWERS BOULEVARD                             ,37682,4001,8,2,2016,14,357,3.9,P,5,1,4,0,2015,12.0,384.0,3.1,P,2014,15,374,4.0,P,37682,36.30106,-82.29077,Milligan College,TN,Tennessee,True,,687.0,1427.9,47019.0,Carter,{'47019':100},Carter,47019,False,False,America/New_York,20.4,41.6,58.4,9.8,2.15,,0.0,39.1,,,28.5,49.6,3.5,92.1,4.4,2.8,0.0,0.0,0.0,0.7
42239,TN,Tennessee,Nashvile,MIND BODY INSTITUTE                                              ,"2416 MUSIC VALLEY DRIVE, SUITE 119                ",37214,1012,2,3,2016,1,37,2.7,B,5,5,4,1,2015,0.0,16.0,0.0,B,2014,0,2,0.0,B,37214,36.163070000000005,-86.6651,Nashville,TN,Tennessee,True,,30151.0,445.3,47037.0,Davidson,{'47037':100},Davidson,47037,False,False,America/Chicago,37.4,47.4,52.6,40.3,2.95,56910.0,18.5,59.2,168113.0,1109.0,38.0,72.7,3.8,74.4,19.6,1.9,0.0,0.0,1.7,2.3
25950,TN,Tennessee,West Fayetteville,HAIR ACADEMY THE                                                 ,513 COLLEGE STREET                                ,37334,2909,3,3,2016,5,30,16.6,A,5,4,4,0,2015,5.0,36.0,13.8,A,2014,5,44,11.3,A,37334,35.16682,-86.58109,Fayetteville,TN,Tennessee,True,,22935.0,32.9,47103.0,Lincoln,"{'47003':0.18,'47103':97.95,'47127':1.86}",Lincoln|Moore|Bedford,47103|47127|47003,False,False,America/Chicago,40.7,48.3,51.7,50.0,3.01,44657.0,14.8,69.6,132420.0,719.0,20.3,56.2,4.5,87.1,9.1,0.6,0.4,0.0,0.1,2.8
22859,TX,Texas,Mcallen,UCAS UNIVERSITY OF COSMETOLOGY ARTS & SCIENCES                   ,8401 NORTH 10TH STREET                            ,78504,391,3,3,2016,44,375,11.7,A,5,15,6,0,2015,33.0,292.0,11.3,A,2014,28,315,8.8,A,78504,26.271990000000002,-98.23657,Mcallen,TX,Texas,True,,56000.0,1063.5,48215.0,Hidalgo,{'48215':100},Hidalgo,48215,False,False,America/Chicago,32.6,49.3,50.7,52.6,3.59,65211.0,28.9,69.0,148546.0,868.0,37.4,66.8,7.2,84.2,1.4,3.7,0.3,0.1,8.7,1.6
42133,TX,Texas,Mcallen,SOUTHERN TEXAS CAREERS ACADEMY                                   ,601 EAST NOLANA                    SUITE C        ,78504,2569,3,3,2016,12,40,30.0,A,5,15,6,0,2015,10.0,59.0,16.9,A,2014,5,52,9.6,A,78504,26.271990000000002,-98.23657,Mcallen,TX,Texas,True,,56000.0,1063.5,48215.0,Hidalgo,{'48215':100},Hidalgo,48215,False,False,America/Chicago,32.6,49.3,50.7,52.6,3.59,65211.0,28.9,69.0,148546.0,868.0,37.4,66.8,7.2,84.2,1.4,3.7,0.3,0.1,8.7,1.6
41784,TX,Texas,Mcallen,VOGUE COLLEGE OF COSMETOLOGY                                     ,800 FERN AVENUE                                   ,78501,1945,3,3,2016,7,134,5.2,A,5,15,6,0,2015,7.0,150.0,4.6,A,2014,4,92,4.3,A,78501,26.21583,-98.23917,Mcallen,TX,Texas,True,,63554.0,1541.1,48215.0,Hidalgo,{'48215':100},Hidalgo,48215,False,False,America/Chicago,33.8,49.0,51.0,43.9,3.59,36618.0,15.7,52.3,102848.0,683.0,25.2,59.2,7.7,77.0,0.5,1.7,0.3,0.1,19.6,0.7
23614,TX,Texas,Mckinney,COLLIN COUNTY COMMUNITY COLLEGE                                  ,2200 WEST UNIVERSITY DRIVE                        ,75070,8001,5,1,2016,490,3244,15.1,A,5,3,6,0,2015,607.0,3788.0,16.0,A,2014,608,4015,15.1,A,75070,33.17311,-96.69773,Mckinney,TX,Texas,True,,98219.0,1208.3,48085.0,Collin,{'48085':100},Collin,48085,False,False,America/Chicago,36.7,47.5,52.5,63.2,3.26,101462.0,50.7,72.2,294498.0,1462.0,53.7,71.9,3.5,76.3,10.2,9.0,0.3,0.0,1.1,3.0
25568,UT,Utah,Salt Lake,PAUL MITCHELL THE SCHOOL SALT LAKE CITY                          ,1969 EAST MURRAY HOLLADAY ROAD                    ,84117,7204,3,3,2016,38,261,14.5,A,5,2,8,0,2015,58.0,324.0,17.9,A,2014,52,315,16.5,A,84117,40.66104,-111.83464,Salt Lake City,UT,Utah,True,,25240.0,1642.0,49035.0,Salt Lake,{'49035':100},Salt Lake,49035,False,False,America/Denver,40.1,49.5,50.5,49.3,3.14,67106.0,32.4,62.8,359281.0,1072.0,47.0,64.0,2.0,92.1,2.7,2.2,0.0,0.8,0.6,1.5
3671,UT,Utah,St George,DIXIE STATE UNIVERSITY                                           ,225 SOUTH 700 EAST                                ,84770,3876,8,1,2016,201,1824,11.0,A,5,2,8,0,2015,234.0,1914.0,12.2,A,2014,265,1991,13.3,A,84770,37.17565,-113.60824,Saint George,UT,Utah,True,,41454.0,288.4,49053.0,Washington,{'49053':100},Washington,49053,False,False,America/Denver,34.6,48.0,52.0,55.8,3.2,51123.0,19.8,57.5,245795.0,914.0,26.8,58.0,4.6,88.6,1.2,0.6,1.0,1.1,4.7,2.9
21435,VT,Vermont,Craftsbury Common,STERLING COLLEGE                                                 ,16 STERLING DRIVE                                 ,5827,72,6,2,2016,2,34,5.8,A,5,AL      ,1,0,2015,2.0,42.0,4.7,A,2014,10,111,9.0,B,5827,44.68112,-72.35814,Craftsbury Common,VT,Vermont,True,,365.0,8.1,50019.0,Orleans,{'50019':100},Orleans,50019,False,False,America/New_York,31.7,59.7,40.3,57.0,2.77,58125.0,12.9,71.6,224553.0,752.0,57.1,50.7,7.8,87.4,1.1,0.0,0.0,0.0,0.0,11.5
3946,VI,Virgin Islands,St. Thomas,UNIVERSITY OF THE VIRGIN ISLANDS                                 ,#2 JOHN BREWERS BAY                               ,802,9990,8,1,2016,34,371,9.1,P,2,AL      ,2,0,2015,52.0,394.0,13.1,P,2014,33,385,8.5,P,802,18.34225,-64.92657,St Thomas,VI,Virgin Islands,False,,,,,,,,,False,False,America/St_Thomas,,,,,,,,,,,,,,,,,,,,
3713,VA,Virginia,Hampden Sydney,HAMPDEN SYDNEY COLLEGE                                           ,COLLEGE ROAD                                      ,23943,128,6,2,2016,14,222,6.3,A,5,5,3,0,2015,7.0,198.0,3.5,A,2014,11,211,5.2,A,23943,37.24367,-78.45568,Hampden Sydney,VA,Virginia,True,,84.0,325.8,51147.0,Prince Edward,{'51147':100},Prince Edward,51147,False,False,America/New_York,79.1,63.1,36.9,71.4,2.0,,100.0,100.0,,,100.0,7.1,0.0,92.9,4.8,0.0,0.0,0.0,0.0,2.4
3707,VA,Virginia,South Prince George,RICHARD BLAND COLLEGE                                            ,11301 JOHNSON ROAD                                ,23805,7100,5,1,2016,43,312,13.7,A,5,4,3,0,2015,43.0,317.0,13.5,A,2014,32,271,11.8,A,23805,37.12899,-77.39780999999999,Petersburg,VA,Virginia,True,,19410.0,102.7,51053.0,Dinwiddie,"{'51053':9.75,'51149':22.78,'51730':67.47}",Dinwiddie|Petersburg|Prince George,51053|51730|51149,False,False,America/New_York,41.1,46.5,53.5,37.1,3.18,51748.0,18.5,59.0,160769.0,965.0,22.6,64.9,9.2,34.4,61.1,1.2,0.1,0.1,0.7,2.5
3742,VA,Virginia,Sweet Briar,SWEET BRIAR COLLEGE                                              ,134 CHAPEL DRIVE                                  ,24595,9998,8,2,2016,3,162,1.8,A,5,6,3,0,2015,5.0,157.0,3.1,A,2014,5,132,3.7,A,24595,37.557790000000004,-79.08251,Sweet Briar,VA,Virginia,True,,612.0,140.8,51009.0,Amherst,{'51009':100},Amherst,51009,False,False,America/New_York,21.0,9.6,90.4,16.2,2.35,103750.0,71.8,56.5,,,28.1,36.9,14.2,86.8,10.1,1.0,0.0,0.0,2.1,0.0
3816,WV,West Virginia,Mt Gay,SOUTHERN WEST VIRGINIA COMMUNITY AND TECHNICAL COLLEGE           ,2900 DEMPSEY BRANCH ROAD                          ,25637,2900,5,1,2016,20,93,21.5,P,5,3,3,0,2015,15.0,94.0,15.9,P,2014,28,90,31.1,P,25637,37.85621,-82.02986999999999,Mount Gay,WV,West Virginia,True,,774.0,100.6,54045.0,Logan,{'54045':100},Logan,54045,False,False,America/New_York,49.0,51.8,48.2,52.9,2.69,26683.0,0.0,67.6,72197.0,547.0,2.5,42.6,41.1,95.6,4.4,0.0,0.0,0.0,0.0,0.0
3892,WI,Wisconsin,Depere,SAINT NORBERT COLLEGE                                            ,100 GRANT STREET                                  ,54115,2099,8,2,2016,12,542,2.2,A,5,8,5,0,2015,12.0,594.0,2.0,A,2014,10,530,1.8,A,54115,44.40464,-88.09196999999999,De Pere,WI,Wisconsin,True,,45700.0,126.7,55009.0,Brown,"{'55009':95.03,'55087':4.97}",Brown|Outagamie,55009|55087,False,False,America/Chicago,36.3,50.0,50.0,55.9,3.0,76267.0,32.9,67.0,202342.0,878.0,38.1,71.3,2.4,90.5,0.4,3.0,3.4,0.0,0.5,2.2
3861,WI,Wisconsin,Fond Du Lac,MARIAN UNIVERSITY                                                ,45 SOUTH NATIONAL AVENUE                          ,54935,4699,8,2,2016,44,616,7.1,A,5,6,5,0,2015,48.0,646.0,7.4,A,2014,47,669,7.0,A,54935,43.77425,-88.43516,Fond Du Lac,WI,Wisconsin,True,,42107.0,1020.2,55039.0,Fond du Lac,{'55039':100},Fond du Lac,55039,False,False,America/Chicago,38.4,48.9,51.1,48.6,2.99,51351.0,16.6,59.4,125107.0,708.0,24.8,66.9,5.7,89.3,2.3,1.6,0.8,0.0,3.1,2.9
9256,WI,Wisconsin,Fond Du Lac,MORAINE PARK TECHNICAL COLLEGE                                   ,235 NORTH NATIONAL AVENUE                         ,54936,1940,5,1,2016,79,791,9.9,A,5,6,5,0,2015,118.0,878.0,13.4,A,2014,127,965,13.1,A,54936,43.773509999999995,-88.4478,Fond Du Lac,WI,Wisconsin,False,54935.0,,,55039.0,Fond du Lac,"{""55039"": 100}",Fond du Lac,55039,False,False,America/Chicago,,,,,,,,,,,,,,,,,,,,
